zip_code,HUD Area Code,HUD Metro Fair Market Rent Area Name,city,state,0BR,0BR_90,0BR_110,1BR,1BR_90,1BR_110,2BR,2BR_90,2BR_110,3BR,3BR_90,3BR_110,4BR,4BR_90,4BR_110
19901,METRO20100M20100,"Dover, DE MSA",Dover,DE,$1130,$1017,$1243,$1130,$1017,$1243,$1390,$1251,$1529,$1960,$1764,$2156,$2190,$1971,$2409
19902,METRO20100M20100,"Dover, DE MSA",Dover,DE,$1130,$1017,$1243,$1130,$1017,$1243,$1390,$1251,$1529,$1960,$1764,$2156,$2190,$1971,$2409
19903,METRO20100M20100,"Dover, DE MSA",Dover,DE,$1110,$999,$1221,$1120,$1008,$1232,$1370,$1233,$1507,$1930,$1737,$2123,$2160,$1944,$2376
19904,METRO20100M20100,"Dover, DE MSA",Dover,DE,$1100,$990,$1210,$1100,$990,$1210,$1350,$1215,$1485,$1900,$1710,$2090,$2120,$1908,$2332
19930,METRO41540N10005,"Sussex County, DE HUD Metro FMR Area",Sussex County,DE,$1050,$945,$1155,$1140,$1026,$1254,$1500,$1350,$1650,$1910,$1719,$2101,$2350,$2115,$2585
19931,METRO41540N10005,"Sussex County, DE HUD Metro FMR Area",Sussex County,DE,$770,$693,$847,$840,$756,$924,$1090,$981,$1199,$1400,$1260,$1540,$1710,$1539,$1881
19933,METRO41540N10005,"Sussex County, DE HUD Metro FMR Area",Sussex County,DE,$710,$639,$781,$780,$702,$858,$1020,$918,$1122,$1300,$1170,$1430,$1600,$1440,$1760
19934,METRO20100M20100,"Dover, DE MSA",Dover,DE,$1210,$1089,$1331,$1220,$1098,$1342,$1490,$1341,$1639,$2100,$1890,$2310,$2340,$2106,$2574
19936,METRO20100M20100,"Dover, DE MSA",Dover,DE,$900,$810,$990,$910,$819,$1001,$1110,$999,$1221,$1560,$1404,$1716,$1750,$1575,$1925
19938,METRO20100M20100,"Dover, DE MSA",Dover,DE,$1270,$1143,$1397,$1290,$1161,$1419,$1580,$1422,$1738,$2190,$1971,$2409,$2450,$2205,$2695
19939,METRO41540N10005,"Sussex County, DE HUD Metro FMR Area",Sussex County,DE,$890,$801,$979,$970,$873,$1067,$1270,$1143,$1397,$1620,$1458,$1782,$1990,$1791,$2189
19940,METRO41540N10005,"Sussex County, DE HUD Metro FMR Area",Sussex County,DE,$700,$630,$770,$760,$684,$836,$1000,$900,$1100,$1300,$1170,$1430,$1590,$1431,$1749
19941,METRO41540N10005,"Sussex County, DE HUD Metro FMR Area",Sussex County,DE,$850,$765,$935,$920,$828,$1012,$1210,$1089,$1331,$1540,$1386,$1694,$1900,$1710,$2090
19943,METRO20100M20100,"Dover, DE MSA",Dover,DE,$1050,$945,$1155,$1050,$945,$1155,$1290,$1161,$1419,$1820,$1638,$2002,$2030,$1827,$2233
19944,METRO41540N10005,"Sussex County, DE HUD Metro FMR Area",Sussex County,DE,$1010,$909,$1111,$1080,$972,$1188,$1380,$1242,$1518,$1790,$1611,$1969,$2170,$1953,$2387
19945,METRO41540N10005,"Sussex County, DE HUD Metro FMR Area",Sussex County,DE,$1020,$918,$1122,$1100,$990,$1210,$1450,$1305,$1595,$1850,$1665,$2035,$2280,$2052,$2508
19946,METRO20100M20100,"Dover, DE MSA",Dover,DE,$1100,$990,$1210,$1100,$990,$1210,$1350,$1215,$1485,$1900,$1710,$2090,$2120,$1908,$2332
19947,METRO41540N10005,"Sussex County, DE HUD Metro FMR Area",Sussex County,DE,$880,$792,$968,$960,$864,$1056,$1260,$1134,$1386,$1610,$1449,$1771,$1980,$1782,$2178
19950,METRO41540N10005,"Sussex County, DE HUD Metro FMR Area",Sussex County,DE,$960,$864,$1056,$1020,$918,$1122,$1320,$1188,$1452,$1730,$1557,$1903,$2080,$1872,$2288
19951,METRO41540N10005,"Sussex County, DE HUD Metro FMR Area",Sussex County,DE,$1300,$1170,$1430,$1410,$1269,$1551,$1850,$1665,$2035,$2360,$2124,$2596,$2900,$2610,$3190
19952,METRO41540N10005,"Sussex County, DE HUD Metro FMR Area",Sussex County,DE,$1040,$936,$1144,$1040,$936,$1144,$1280,$1152,$1408,$1800,$1620,$1980,$2010,$1809,$2211
19953,METRO20100M20100,"Dover, DE MSA",Dover,DE,$1110,$999,$1221,$1120,$1008,$1232,$1370,$1233,$1507,$1930,$1737,$2123,$2160,$1944,$2376
19954,METRO20100M20100,"Dover, DE MSA",Dover,DE,$1030,$927,$1133,$1040,$936,$1144,$1270,$1143,$1397,$1790,$1611,$1969,$2000,$1800,$2200
19955,METRO20100M20100,"Dover, DE MSA",Dover,DE,$1270,$1143,$1397,$1290,$1161,$1419,$1580,$1422,$1738,$2190,$1971,$2409,$2450,$2205,$2695
19956,METRO41540N10005,"Sussex County, DE HUD Metro FMR Area",Sussex County,DE,$710,$639,$781,$770,$693,$847,$1010,$909,$1111,$1300,$1170,$1430,$1590,$1431,$1749
19958,METRO41540N10005,"Sussex County, DE HUD Metro FMR Area",Sussex County,DE,$1160,$1044,$1276,$1260,$1134,$1386,$1650,$1485,$1815,$2100,$1890,$2310,$2590,$2331,$2849
19960,METRO41540N10005,"Sussex County, DE HUD Metro FMR Area",Sussex County,DE,$900,$810,$990,$980,$882,$1078,$1290,$1161,$1419,$1650,$1485,$1815,$2020,$1818,$2222
19961,METRO20100M20100,"Dover, DE MSA",Dover,DE,$1110,$999,$1221,$1120,$1008,$1232,$1370,$1233,$1507,$1930,$1737,$2123,$2160,$1944,$2376
19962,METRO20100M20100,"Dover, DE MSA",Dover,DE,$1060,$954,$1166,$1070,$963,$1177,$1310,$1179,$1441,$1850,$1665,$2035,$2060,$1854,$2266
19963,METRO41540N10005,"Sussex County, DE HUD Metro FMR Area",Sussex County,DE,$930,$837,$1023,$980,$882,$1078,$1250,$1125,$1375,$1660,$1494,$1826,$1960,$1764,$2156
19964,METRO20100M20100,"Dover, DE MSA",Dover,DE,$1210,$1089,$1331,$1280,$1152,$1408,$1560,$1404,$1716,$2140,$1926,$2354,$2400,$2160,$2640
19966,METRO41540N10005,"Sussex County, DE HUD Metro FMR Area",Sussex County,DE,$950,$855,$1045,$1030,$927,$1133,$1350,$1215,$1485,$1720,$1548,$1892,$2120,$1908,$2332
19967,METRO41540N10005,"Sussex County, DE HUD Metro FMR Area",Sussex County,DE,$1370,$1233,$1507,$1480,$1332,$1628,$1950,$1755,$2145,$2490,$2241,$2739,$3060,$2754,$3366
19968,METRO41540N10005,"Sussex County, DE HUD Metro FMR Area",Sussex County,DE,$950,$855,$1045,$1030,$927,$1133,$1350,$1215,$1485,$1720,$1548,$1892,$2120,$1908,$2332
19969,METRO41540N10005,"Sussex County, DE HUD Metro FMR Area",Sussex County,DE,$910,$819,$1001,$990,$891,$1089,$1300,$1170,$1430,$1660,$1494,$1826,$2040,$1836,$2244
19970,METRO41540N10005,"Sussex County, DE HUD Metro FMR Area",Sussex County,DE,$1090,$981,$1199,$1190,$1071,$1309,$1560,$1404,$1716,$1990,$1791,$2189,$2450,$2205,$2695
19971,METRO41540N10005,"Sussex County, DE HUD Metro FMR Area",Sussex County,DE,$1100,$990,$1210,$1190,$1071,$1309,$1570,$1413,$1727,$2000,$1800,$2200,$2460,$2214,$2706
19973,METRO41540N10005,"Sussex County, DE HUD Metro FMR Area",Sussex County,DE,$810,$729,$891,$880,$792,$968,$1150,$1035,$1265,$1470,$1323,$1617,$1800,$1620,$1980
19975,METRO41540N10005,"Sussex County, DE HUD Metro FMR Area",Sussex County,DE,$960,$864,$1056,$1040,$936,$1144,$1370,$1233,$1507,$1750,$1575,$1925,$2150,$1935,$2365
19977,METRO20100M20100,"Dover, DE MSA",Dover,DE,$1180,$1062,$1298,$1210,$1089,$1331,$1470,$1323,$1617,$2020,$1818,$2222,$2270,$2043,$2497
19979,METRO20100M20100,"Dover, DE MSA",Dover,DE,$1100,$990,$1210,$1110,$999,$1221,$1360,$1224,$1496,$1920,$1728,$2112,$2140,$1926,$2354
19980,METRO20100M20100,"Dover, DE MSA",Dover,DE,$1110,$999,$1221,$1120,$1008,$1232,$1370,$1233,$1507,$1930,$1737,$2123,$2160,$1944,$2376
08001,METRO37980M37980,"Philadelphia-Camden-Wilmington, PA-NJ-DE-MD MSA",Philadelphia-Camden-Wilmington,PA-NJ-DE-MD,$1130,$1017,$1243,$1230,$1107,$1353,$1500,$1350,$1650,$1860,$1674,$2046,$2080,$1872,$2288
08002,METRO37980M37980,"Philadelphia-Camden-Wilmington, PA-NJ-DE-MD MSA",Philadelphia-Camden-Wilmington,PA-NJ-DE-MD,$1640,$1476,$1804,$1830,$1647,$2013,$2190,$1971,$2409,$2650,$2385,$2915,$3050,$2745,$3355
08003,METRO37980M37980,"Philadelphia-Camden-Wilmington, PA-NJ-DE-MD MSA",Philadelphia-Camden-Wilmington,PA-NJ-DE-MD,$1960,$1764,$2156,$2180,$1962,$2398,$2610,$2349,$2871,$3160,$2844,$3476,$3640,$3276,$4004
08004,METRO37980M37980,"Philadelphia-Camden-Wilmington, PA-NJ-DE-MD MSA",Philadelphia-Camden-Wilmington,PA-NJ-DE-MD,$1710,$1539,$1881,$1900,$1710,$2090,$2280,$2052,$2508,$2760,$2484,$3036,$3180,$2862,$3498
08007,METRO37980M37980,"Philadelphia-Camden-Wilmington, PA-NJ-DE-MD MSA",Philadelphia-Camden-Wilmington,PA-NJ-DE-MD,$1070,$963,$1177,$1190,$1071,$1309,$1420,$1278,$1562,$1720,$1548,$1892,$1980,$1782,$2178
08009,METRO37980M37980,"Philadelphia-Camden-Wilmington, PA-NJ-DE-MD MSA",Philadelphia-Camden-Wilmington,PA-NJ-DE-MD,$1410,$1269,$1551,$1570,$1413,$1727,$1880,$1692,$2068,$2270,$2043,$2497,$2620,$2358,$2882
08010,METRO37980M37980,"Philadelphia-Camden-Wilmington, PA-NJ-DE-MD MSA",Philadelphia-Camden-Wilmington,PA-NJ-DE-MD,$1430,$1287,$1573,$1590,$1431,$1749,$1900,$1710,$2090,$2300,$2070,$2530,$2650,$2385,$2915
08011,METRO37980M37980,"Philadelphia-Camden-Wilmington, PA-NJ-DE-MD MSA",Philadelphia-Camden-Wilmington,PA-NJ-DE-MD,$1520,$1368,$1672,$1690,$1521,$1859,$2020,$1818,$2222,$2440,$2196,$2684,$2820,$2538,$3102
08012,METRO37980M37980,"Philadelphia-Camden-Wilmington, PA-NJ-DE-MD MSA",Philadelphia-Camden-Wilmington,PA-NJ-DE-MD,$1330,$1197,$1463,$1480,$1332,$1628,$1770,$1593,$1947,$2140,$1926,$2354,$2470,$2223,$2717
08014,METRO37980M37980,"Philadelphia-Camden-Wilmington, PA-NJ-DE-MD MSA",Philadelphia-Camden-Wilmington,PA-NJ-DE-MD,$1750,$1575,$1925,$1950,$1755,$2145,$2340,$2106,$2574,$2820,$2538,$3102,$3260,$2934,$3586
08015,METRO37980M37980,"Philadelphia-Camden-Wilmington, PA-NJ-DE-MD MSA",Philadelphia-Camden-Wilmington,PA-NJ-DE-MD,$1360,$1224,$1496,$1510,$1359,$1661,$1810,$1629,$1991,$2190,$1971,$2409,$2520,$2268,$2772
08016,METRO37980M37980,"Philadelphia-Camden-Wilmington, PA-NJ-DE-MD MSA",Philadelphia-Camden-Wilmington,PA-NJ-DE-MD,$1230,$1107,$1353,$1370,$1233,$1507,$1640,$1476,$1804,$1980,$1782,$2178,$2290,$2061,$2519
08018,METRO37980M37980,"Philadelphia-Camden-Wilmington, PA-NJ-DE-MD MSA",Philadelphia-Camden-Wilmington,PA-NJ-DE-MD,$1250,$1125,$1375,$1400,$1260,$1540,$1670,$1503,$1837,$2020,$1818,$2222,$2330,$2097,$2563
08019,METRO37980M37980,"Philadelphia-Camden-Wilmington, PA-NJ-DE-MD MSA",Philadelphia-Camden-Wilmington,PA-NJ-DE-MD,$1960,$1764,$2156,$2180,$1962,$2398,$2610,$2349,$2871,$3160,$2844,$3476,$3640,$3276,$4004
08020,METRO37980M37980,"Philadelphia-Camden-Wilmington, PA-NJ-DE-MD MSA",Philadelphia-Camden-Wilmington,PA-NJ-DE-MD,$1650,$1485,$1815,$1830,$1647,$2013,$2190,$1971,$2409,$2650,$2385,$2915,$3060,$2754,$3366
08021,METRO37980M37980,"Philadelphia-Camden-Wilmington, PA-NJ-DE-MD MSA",Philadelphia-Camden-Wilmington,PA-NJ-DE-MD,$1310,$1179,$1441,$1450,$1305,$1595,$1740,$1566,$1914,$2100,$1890,$2310,$2430,$2187,$2673
08022,METRO37980M37980,"Philadelphia-Camden-Wilmington, PA-NJ-DE-MD MSA",Philadelphia-Camden-Wilmington,PA-NJ-DE-MD,$1470,$1323,$1617,$1640,$1476,$1804,$1960,$1764,$2156,$2370,$2133,$2607,$2740,$2466,$3014
08023,METRO37980M37980,"Philadelphia-Camden-Wilmington, PA-NJ-DE-MD MSA",Philadelphia-Camden-Wilmington,PA-NJ-DE-MD,$1400,$1260,$1540,$1550,$1395,$1705,$1860,$1674,$2046,$2250,$2025,$2475,$2590,$2331,$2849
08025,METRO37980M37980,"Philadelphia-Camden-Wilmington, PA-NJ-DE-MD MSA",Philadelphia-Camden-Wilmington,PA-NJ-DE-MD,$1410,$1269,$1551,$1570,$1413,$1727,$1880,$1692,$2068,$2270,$2043,$2497,$2620,$2358,$2882
08026,METRO37980M37980,"Philadelphia-Camden-Wilmington, PA-NJ-DE-MD MSA",Philadelphia-Camden-Wilmington,PA-NJ-DE-MD,$1960,$1764,$2156,$2180,$1962,$2398,$2610,$2349,$2871,$3160,$2844,$3476,$3640,$3276,$4004
08027,METRO37980M37980,"Philadelphia-Camden-Wilmington, PA-NJ-DE-MD MSA",Philadelphia-Camden-Wilmington,PA-NJ-DE-MD,$1250,$1125,$1375,$1400,$1260,$1540,$1670,$1503,$1837,$2020,$1818,$2222,$2330,$2097,$2563
08028,METRO37980M37980,"Philadelphia-Camden-Wilmington, PA-NJ-DE-MD MSA",Philadelphia-Camden-Wilmington,PA-NJ-DE-MD,$1550,$1395,$1705,$1730,$1557,$1903,$2070,$1863,$2277,$2500,$2250,$2750,$2890,$2601,$3179
08029,METRO37980M37980,"Philadelphia-Camden-Wilmington, PA-NJ-DE-MD MSA",Philadelphia-Camden-Wilmington,PA-NJ-DE-MD,$1320,$1188,$1452,$1470,$1323,$1617,$1760,$1584,$1936,$2130,$1917,$2343,$2450,$2205,$2695
08030,METRO37980M37980,"Philadelphia-Camden-Wilmington, PA-NJ-DE-MD MSA",Philadelphia-Camden-Wilmington,PA-NJ-DE-MD,$1370,$1233,$1507,$1520,$1368,$1672,$1820,$1638,$2002,$2200,$1980,$2420,$2540,$2286,$2794
08031,METRO37980M37980,"Philadelphia-Camden-Wilmington, PA-NJ-DE-MD MSA",Philadelphia-Camden-Wilmington,PA-NJ-DE-MD,$1070,$963,$1177,$1190,$1071,$1309,$1430,$1287,$1573,$1730,$1557,$1903,$1990,$1791,$2189
08032,METRO37980M37980,"Philadelphia-Camden-Wilmington, PA-NJ-DE-MD MSA",Philadelphia-Camden-Wilmington,PA-NJ-DE-MD,$1410,$1269,$1551,$1570,$1413,$1727,$1880,$1692,$2068,$2270,$2043,$2497,$2620,$2358,$2882
08033,METRO37980M37980,"Philadelphia-Camden-Wilmington, PA-NJ-DE-MD MSA",Philadelphia-Camden-Wilmington,PA-NJ-DE-MD,$1270,$1143,$1397,$1410,$1269,$1551,$1690,$1521,$1859,$2040,$1836,$2244,$2360,$2124,$2596
08034,METRO37980M37980,"Philadelphia-Camden-Wilmington, PA-NJ-DE-MD MSA",Philadelphia-Camden-Wilmington,PA-NJ-DE-MD,$1550,$1395,$1705,$1720,$1548,$1892,$2060,$1854,$2266,$2490,$2241,$2739,$2870,$2583,$3157
08035,METRO37980M37980,"Philadelphia-Camden-Wilmington, PA-NJ-DE-MD MSA",Philadelphia-Camden-Wilmington,PA-NJ-DE-MD,$1270,$1143,$1397,$1410,$1269,$1551,$1690,$1521,$1859,$2040,$1836,$2244,$2360,$2124,$2596
08036,METRO37980M37980,"Philadelphia-Camden-Wilmington, PA-NJ-DE-MD MSA",Philadelphia-Camden-Wilmington,PA-NJ-DE-MD,$1140,$1026,$1254,$1270,$1143,$1397,$1520,$1368,$1672,$1840,$1656,$2024,$2120,$1908,$2332
08037,METRO37980M37980,"Philadelphia-Camden-Wilmington, PA-NJ-DE-MD MSA",Philadelphia-Camden-Wilmington,PA-NJ-DE-MD,$1210,$1089,$1331,$1370,$1233,$1507,$1700,$1530,$1870,$2320,$2088,$2552,$2570,$2313,$2827
08038,METRO37980M37980,"Philadelphia-Camden-Wilmington, PA-NJ-DE-MD MSA",Philadelphia-Camden-Wilmington,PA-NJ-DE-MD,$1100,$990,$1210,$1230,$1107,$1353,$1470,$1323,$1617,$1790,$1611,$1969,$2050,$1845,$2255
08039,METRO37980M37980,"Philadelphia-Camden-Wilmington, PA-NJ-DE-MD MSA",Philadelphia-Camden-Wilmington,PA-NJ-DE-MD,$1480,$1332,$1628,$1650,$1485,$1815,$1980,$1782,$2178,$2390,$2151,$2629,$2760,$2484,$3036
08041,METRO37980M37980,"Philadelphia-Camden-Wilmington, PA-NJ-DE-MD MSA",Philadelphia-Camden-Wilmington,PA-NJ-DE-MD,$1350,$1215,$1485,$1500,$1350,$1650,$1800,$1620,$1980,$2180,$1962,$2398,$2500,$2250,$2750
08042,METRO37980M37980,"Philadelphia-Camden-Wilmington, PA-NJ-DE-MD MSA",Philadelphia-Camden-Wilmington,PA-NJ-DE-MD,$1610,$1449,$1771,$1790,$1611,$1969,$2140,$1926,$2354,$2590,$2331,$2849,$2980,$2682,$3278
08043,METRO37980M37980,"Philadelphia-Camden-Wilmington, PA-NJ-DE-MD MSA",Philadelphia-Camden-Wilmington,PA-NJ-DE-MD,$1620,$1458,$1782,$1800,$1620,$1980,$2160,$1944,$2376,$2610,$2349,$2871,$3010,$2709,$3311
08045,METRO37980M37980,"Philadelphia-Camden-Wilmington, PA-NJ-DE-MD MSA",Philadelphia-Camden-Wilmington,PA-NJ-DE-MD,$1080,$972,$1188,$1200,$1080,$1320,$1440,$1296,$1584,$1740,$1566,$1914,$2010,$1809,$2211
08046,METRO37980M37980,"Philadelphia-Camden-Wilmington, PA-NJ-DE-MD MSA",Philadelphia-Camden-Wilmington,PA-NJ-DE-MD,$1780,$1602,$1958,$1980,$1782,$2178,$2370,$2133,$2607,$2870,$2583,$3157,$3300,$2970,$3630
08048,METRO37980M37980,"Philadelphia-Camden-Wilmington, PA-NJ-DE-MD MSA",Philadelphia-Camden-Wilmington,PA-NJ-DE-MD,$1540,$1386,$1694,$1710,$1539,$1881,$2050,$1845,$2255,$2480,$2232,$2728,$2860,$2574,$3146
08049,METRO37980M37980,"Philadelphia-Camden-Wilmington, PA-NJ-DE-MD MSA",Philadelphia-Camden-Wilmington,PA-NJ-DE-MD,$1160,$1044,$1276,$1290,$1161,$1419,$1540,$1386,$1694,$1860,$1674,$2046,$2150,$1935,$2365
08051,METRO37980M37980,"Philadelphia-Camden-Wilmington, PA-NJ-DE-MD MSA",Philadelphia-Camden-Wilmington,PA-NJ-DE-MD,$1560,$1404,$1716,$1740,$1566,$1914,$2080,$1872,$2288,$2510,$2259,$2761,$2900,$2610,$3190
08052,METRO37980M37980,"Philadelphia-Camden-Wilmington, PA-NJ-DE-MD MSA",Philadelphia-Camden-Wilmington,PA-NJ-DE-MD,$1460,$1314,$1606,$1630,$1467,$1793,$1950,$1755,$2145,$2360,$2124,$2596,$2720,$2448,$2992
08053,METRO37980M37980,"Philadelphia-Camden-Wilmington, PA-NJ-DE-MD MSA",Philadelphia-Camden-Wilmington,PA-NJ-DE-MD,$1780,$1602,$1958,$1980,$1782,$2178,$2370,$2133,$2607,$2870,$2583,$3157,$3300,$2970,$3630
08054,METRO37980M37980,"Philadelphia-Camden-Wilmington, PA-NJ-DE-MD MSA",Philadelphia-Camden-Wilmington,PA-NJ-DE-MD,$1630,$1467,$1793,$1810,$1629,$1991,$2170,$1953,$2387,$2620,$2358,$2882,$3030,$2727,$3333
08055,METRO37980M37980,"Philadelphia-Camden-Wilmington, PA-NJ-DE-MD MSA",Philadelphia-Camden-Wilmington,PA-NJ-DE-MD,$1550,$1395,$1705,$1720,$1548,$1892,$2060,$1854,$2266,$2490,$2241,$2739,$2870,$2583,$3157
08056,METRO37980M37980,"Philadelphia-Camden-Wilmington, PA-NJ-DE-MD MSA",Philadelphia-Camden-Wilmington,PA-NJ-DE-MD,$1560,$1404,$1716,$1740,$1566,$1914,$2080,$1872,$2288,$2510,$2259,$2761,$2900,$2610,$3190
08057,METRO37980M37980,"Philadelphia-Camden-Wilmington, PA-NJ-DE-MD MSA",Philadelphia-Camden-Wilmington,PA-NJ-DE-MD,$1420,$1278,$1562,$1580,$1422,$1738,$1890,$1701,$2079,$2290,$2061,$2519,$2640,$2376,$2904
08059,METRO37980M37980,"Philadelphia-Camden-Wilmington, PA-NJ-DE-MD MSA",Philadelphia-Camden-Wilmington,PA-NJ-DE-MD,$1210,$1089,$1331,$1340,$1206,$1474,$1610,$1449,$1771,$1950,$1755,$2145,$2250,$2025,$2475
08060,METRO37980M37980,"Philadelphia-Camden-Wilmington, PA-NJ-DE-MD MSA",Philadelphia-Camden-Wilmington,PA-NJ-DE-MD,$1410,$1269,$1551,$1570,$1413,$1727,$1880,$1692,$2068,$2270,$2043,$2497,$2620,$2358,$2882
08061,METRO37980M37980,"Philadelphia-Camden-Wilmington, PA-NJ-DE-MD MSA",Philadelphia-Camden-Wilmington,PA-NJ-DE-MD,$1960,$1764,$2156,$2180,$1962,$2398,$2610,$2349,$2871,$3160,$2844,$3476,$3640,$3276,$4004
08062,METRO37980M37980,"Philadelphia-Camden-Wilmington, PA-NJ-DE-MD MSA",Philadelphia-Camden-Wilmington,PA-NJ-DE-MD,$1290,$1161,$1419,$1440,$1296,$1584,$1720,$1548,$1892,$2080,$1872,$2288,$2400,$2160,$2640
08063,METRO37980M37980,"Philadelphia-Camden-Wilmington, PA-NJ-DE-MD MSA",Philadelphia-Camden-Wilmington,PA-NJ-DE-MD,$1380,$1242,$1518,$1540,$1386,$1694,$1840,$1656,$2024,$2220,$1998,$2442,$2570,$2313,$2827
08064,METRO37980M37980,"Philadelphia-Camden-Wilmington, PA-NJ-DE-MD MSA",Philadelphia-Camden-Wilmington,PA-NJ-DE-MD,$1260,$1134,$1386,$1390,$1251,$1529,$1670,$1503,$1837,$2020,$1818,$2222,$2330,$2097,$2563
08065,METRO37980M37980,"Philadelphia-Camden-Wilmington, PA-NJ-DE-MD MSA",Philadelphia-Camden-Wilmington,PA-NJ-DE-MD,$1540,$1386,$1694,$1710,$1539,$1881,$2050,$1845,$2255,$2480,$2232,$2728,$2860,$2574,$3146
08066,METRO37980M37980,"Philadelphia-Camden-Wilmington, PA-NJ-DE-MD MSA",Philadelphia-Camden-Wilmington,PA-NJ-DE-MD,$1070,$963,$1177,$1190,$1071,$1309,$1430,$1287,$1573,$1730,$1557,$1903,$1990,$1791,$2189
08067,METRO37980M37980,"Philadelphia-Camden-Wilmington, PA-NJ-DE-MD MSA",Philadelphia-Camden-Wilmington,PA-NJ-DE-MD,$1560,$1404,$1716,$1740,$1566,$1914,$2080,$1872,$2288,$2510,$2259,$2761,$2900,$2610,$3190
08068,METRO37980M37980,"Philadelphia-Camden-Wilmington, PA-NJ-DE-MD MSA",Philadelphia-Camden-Wilmington,PA-NJ-DE-MD,$1160,$1044,$1276,$1290,$1161,$1419,$1540,$1386,$1694,$1860,$1674,$2046,$2150,$1935,$2365
08069,METRO37980M37980,"Philadelphia-Camden-Wilmington, PA-NJ-DE-MD MSA",Philadelphia-Camden-Wilmington,PA-NJ-DE-MD,$1210,$1089,$1331,$1340,$1206,$1474,$1610,$1449,$1771,$1950,$1755,$2145,$2250,$2025,$2475
08070,METRO37980M37980,"Philadelphia-Camden-Wilmington, PA-NJ-DE-MD MSA",Philadelphia-Camden-Wilmington,PA-NJ-DE-MD,$1160,$1044,$1276,$1290,$1161,$1419,$1540,$1386,$1694,$1860,$1674,$2046,$2150,$1935,$2365
08071,METRO37980M37980,"Philadelphia-Camden-Wilmington, PA-NJ-DE-MD MSA",Philadelphia-Camden-Wilmington,PA-NJ-DE-MD,$1390,$1251,$1529,$1550,$1395,$1705,$1850,$1665,$2035,$2240,$2016,$2464,$2580,$2322,$2838
08072,METRO37980M37980,"Philadelphia-Camden-Wilmington, PA-NJ-DE-MD MSA",Philadelphia-Camden-Wilmington,PA-NJ-DE-MD,$1100,$990,$1210,$1230,$1107,$1353,$1470,$1323,$1617,$1780,$1602,$1958,$2050,$1845,$2255
08073,METRO37980M37980,"Philadelphia-Camden-Wilmington, PA-NJ-DE-MD MSA",Philadelphia-Camden-Wilmington,PA-NJ-DE-MD,$1520,$1368,$1672,$1690,$1521,$1859,$2020,$1818,$2222,$2440,$2196,$2684,$2820,$2538,$3102
08074,METRO37980M37980,"Philadelphia-Camden-Wilmington, PA-NJ-DE-MD MSA",Philadelphia-Camden-Wilmington,PA-NJ-DE-MD,$1290,$1161,$1419,$1440,$1296,$1584,$1720,$1548,$1892,$2080,$1872,$2288,$2400,$2160,$2640
08075,METRO37980M37980,"Philadelphia-Camden-Wilmington, PA-NJ-DE-MD MSA",Philadelphia-Camden-Wilmington,PA-NJ-DE-MD,$1400,$1260,$1540,$1550,$1395,$1705,$1860,$1674,$2046,$2250,$2025,$2475,$2590,$2331,$2849
08077,METRO37980M37980,"Philadelphia-Camden-Wilmington, PA-NJ-DE-MD MSA",Philadelphia-Camden-Wilmington,PA-NJ-DE-MD,$1820,$1638,$2002,$2020,$1818,$2222,$2420,$2178,$2662,$2930,$2637,$3223,$3370,$3033,$3707
08078,METRO37980M37980,"Philadelphia-Camden-Wilmington, PA-NJ-DE-MD MSA",Philadelphia-Camden-Wilmington,PA-NJ-DE-MD,$1130,$1017,$1243,$1260,$1134,$1386,$1510,$1359,$1661,$1830,$1647,$2013,$2110,$1899,$2321
08079,METRO37980M37980,"Philadelphia-Camden-Wilmington, PA-NJ-DE-MD MSA",Philadelphia-Camden-Wilmington,PA-NJ-DE-MD,$1100,$990,$1210,$1230,$1107,$1353,$1470,$1323,$1617,$1780,$1602,$1958,$2050,$1845,$2255
08080,METRO37980M37980,"Philadelphia-Camden-Wilmington, PA-NJ-DE-MD MSA",Philadelphia-Camden-Wilmington,PA-NJ-DE-MD,$1640,$1476,$1804,$1820,$1638,$2002,$2180,$1962,$2398,$2640,$2376,$2904,$3040,$2736,$3344
08081,METRO37980M37980,"Philadelphia-Camden-Wilmington, PA-NJ-DE-MD MSA",Philadelphia-Camden-Wilmington,PA-NJ-DE-MD,$1520,$1368,$1672,$1690,$1521,$1859,$2020,$1818,$2222,$2440,$2196,$2684,$2820,$2538,$3102
08083,METRO37980M37980,"Philadelphia-Camden-Wilmington, PA-NJ-DE-MD MSA",Philadelphia-Camden-Wilmington,PA-NJ-DE-MD,$1160,$1044,$1276,$1290,$1161,$1419,$1540,$1386,$1694,$1860,$1674,$2046,$2150,$1935,$2365
08084,METRO37980M37980,"Philadelphia-Camden-Wilmington, PA-NJ-DE-MD MSA",Philadelphia-Camden-Wilmington,PA-NJ-DE-MD,$1090,$981,$1199,$1210,$1089,$1331,$1450,$1305,$1595,$1750,$1575,$1925,$2020,$1818,$2222
08085,METRO37980M37980,"Philadelphia-Camden-Wilmington, PA-NJ-DE-MD MSA",Philadelphia-Camden-Wilmington,PA-NJ-DE-MD,$1800,$1620,$1980,$2000,$1800,$2200,$2400,$2160,$2640,$2900,$2610,$3190,$3350,$3015,$3685
08086,METRO37980M37980,"Philadelphia-Camden-Wilmington, PA-NJ-DE-MD MSA",Philadelphia-Camden-Wilmington,PA-NJ-DE-MD,$1580,$1422,$1738,$1760,$1584,$1936,$2110,$1899,$2321,$2550,$2295,$2805,$2940,$2646,$3234
08087,METRO37980M37980,"Philadelphia-Camden-Wilmington, PA-NJ-DE-MD MSA",Philadelphia-Camden-Wilmington,PA-NJ-DE-MD,$1400,$1260,$1540,$1560,$1404,$1716,$1930,$1737,$2123,$2610,$2349,$2871,$2910,$2619,$3201
08088,METRO37980M37980,"Philadelphia-Camden-Wilmington, PA-NJ-DE-MD MSA",Philadelphia-Camden-Wilmington,PA-NJ-DE-MD,$1960,$1764,$2156,$2180,$1962,$2398,$2610,$2349,$2871,$3160,$2844,$3476,$3640,$3276,$4004
08089,METRO37980M37980,"Philadelphia-Camden-Wilmington, PA-NJ-DE-MD MSA",Philadelphia-Camden-Wilmington,PA-NJ-DE-MD,$1250,$1125,$1375,$1400,$1260,$1540,$1670,$1503,$1837,$2020,$1818,$2222,$2330,$2097,$2563
08090,METRO37980M37980,"Philadelphia-Camden-Wilmington, PA-NJ-DE-MD MSA",Philadelphia-Camden-Wilmington,PA-NJ-DE-MD,$1470,$1323,$1617,$1640,$1476,$1804,$1960,$1764,$2156,$2370,$2133,$2607,$2740,$2466,$3014
08091,METRO37980M37980,"Philadelphia-Camden-Wilmington, PA-NJ-DE-MD MSA",Philadelphia-Camden-Wilmington,PA-NJ-DE-MD,$1250,$1125,$1375,$1400,$1260,$1540,$1670,$1503,$1837,$2020,$1818,$2222,$2330,$2097,$2563
08093,METRO37980M37980,"Philadelphia-Camden-Wilmington, PA-NJ-DE-MD MSA",Philadelphia-Camden-Wilmington,PA-NJ-DE-MD,$1190,$1071,$1309,$1330,$1197,$1463,$1590,$1431,$1749,$1920,$1728,$2112,$2220,$1998,$2442
08094,METRO37980M37980,"Philadelphia-Camden-Wilmington, PA-NJ-DE-MD MSA",Philadelphia-Camden-Wilmington,PA-NJ-DE-MD,$1270,$1143,$1397,$1410,$1269,$1551,$1700,$1530,$1870,$2070,$1863,$2277,$2380,$2142,$2618
08095,METRO37980M37980,"Philadelphia-Camden-Wilmington, PA-NJ-DE-MD MSA",Philadelphia-Camden-Wilmington,PA-NJ-DE-MD,$1250,$1125,$1375,$1400,$1260,$1540,$1670,$1503,$1837,$2020,$1818,$2222,$2330,$2097,$2563
08096,METRO37980M37980,"Philadelphia-Camden-Wilmington, PA-NJ-DE-MD MSA",Philadelphia-Camden-Wilmington,PA-NJ-DE-MD,$1400,$1260,$1540,$1560,$1404,$1716,$1870,$1683,$2057,$2260,$2034,$2486,$2610,$2349,$2871
08097,METRO37980M37980,"Philadelphia-Camden-Wilmington, PA-NJ-DE-MD MSA",Philadelphia-Camden-Wilmington,PA-NJ-DE-MD,$1160,$1044,$1276,$1290,$1161,$1419,$1540,$1386,$1694,$1860,$1674,$2046,$2150,$1935,$2365
08098,METRO37980M37980,"Philadelphia-Camden-Wilmington, PA-NJ-DE-MD MSA",Philadelphia-Camden-Wilmington,PA-NJ-DE-MD,$1160,$1044,$1276,$1290,$1161,$1419,$1550,$1395,$1705,$1870,$1683,$2057,$2160,$1944,$2376
08099,METRO37980M37980,"Philadelphia-Camden-Wilmington, PA-NJ-DE-MD MSA",Philadelphia-Camden-Wilmington,PA-NJ-DE-MD,$1250,$1125,$1375,$1400,$1260,$1540,$1670,$1503,$1837,$2020,$1818,$2222,$2330,$2097,$2563
08101,METRO37980M37980,"Philadelphia-Camden-Wilmington, PA-NJ-DE-MD MSA",Philadelphia-Camden-Wilmington,PA-NJ-DE-MD,$1250,$1125,$1375,$1400,$1260,$1540,$1670,$1503,$1837,$2020,$1818,$2222,$2330,$2097,$2563
08102,METRO37980M37980,"Philadelphia-Camden-Wilmington, PA-NJ-DE-MD MSA",Philadelphia-Camden-Wilmington,PA-NJ-DE-MD,$1220,$1098,$1342,$1350,$1215,$1485,$1620,$1458,$1782,$1960,$1764,$2156,$2260,$2034,$2486
08103,METRO37980M37980,"Philadelphia-Camden-Wilmington, PA-NJ-DE-MD MSA",Philadelphia-Camden-Wilmington,PA-NJ-DE-MD,$1150,$1035,$1265,$1280,$1152,$1408,$1530,$1377,$1683,$1850,$1665,$2035,$2130,$1917,$2343
08104,METRO37980M37980,"Philadelphia-Camden-Wilmington, PA-NJ-DE-MD MSA",Philadelphia-Camden-Wilmington,PA-NJ-DE-MD,$1050,$945,$1155,$1170,$1053,$1287,$1400,$1260,$1540,$1690,$1521,$1859,$1950,$1755,$2145
08105,METRO37980M37980,"Philadelphia-Camden-Wilmington, PA-NJ-DE-MD MSA",Philadelphia-Camden-Wilmington,PA-NJ-DE-MD,$1220,$1098,$1342,$1350,$1215,$1485,$1620,$1458,$1782,$1960,$1764,$2156,$2260,$2034,$2486
08106,METRO37980M37980,"Philadelphia-Camden-Wilmington, PA-NJ-DE-MD MSA",Philadelphia-Camden-Wilmington,PA-NJ-DE-MD,$1080,$972,$1188,$1200,$1080,$1320,$1440,$1296,$1584,$1740,$1566,$1914,$2010,$1809,$2211
08107,METRO37980M37980,"Philadelphia-Camden-Wilmington, PA-NJ-DE-MD MSA",Philadelphia-Camden-Wilmington,PA-NJ-DE-MD,$1200,$1080,$1320,$1340,$1206,$1474,$1600,$1440,$1760,$1930,$1737,$2123,$2230,$2007,$2453
08108,METRO37980M37980,"Philadelphia-Camden-Wilmington, PA-NJ-DE-MD MSA",Philadelphia-Camden-Wilmington,PA-NJ-DE-MD,$1460,$1314,$1606,$1630,$1467,$1793,$1950,$1755,$2145,$2360,$2124,$2596,$2720,$2448,$2992
08109,METRO37980M37980,"Philadelphia-Camden-Wilmington, PA-NJ-DE-MD MSA",Philadelphia-Camden-Wilmington,PA-NJ-DE-MD,$1220,$1098,$1342,$1350,$1215,$1485,$1620,$1458,$1782,$1960,$1764,$2156,$2260,$2034,$2486
08110,METRO37980M37980,"Philadelphia-Camden-Wilmington, PA-NJ-DE-MD MSA",Philadelphia-Camden-Wilmington,PA-NJ-DE-MD,$1220,$1098,$1342,$1360,$1224,$1496,$1630,$1467,$1793,$1970,$1773,$2167,$2270,$2043,$2497
08215,METRO37980M37980,"Philadelphia-Camden-Wilmington, PA-NJ-DE-MD MSA",Philadelphia-Camden-Wilmington,PA-NJ-DE-MD,$1250,$1125,$1375,$1430,$1287,$1573,$1770,$1593,$1947,$2480,$2232,$2728,$2730,$2457,$3003
08224,METRO37980M37980,"Philadelphia-Camden-Wilmington, PA-NJ-DE-MD MSA",Philadelphia-Camden-Wilmington,PA-NJ-DE-MD,$1240,$1116,$1364,$1380,$1242,$1518,$1650,$1485,$1815,$2000,$1800,$2200,$2300,$2070,$2530
08302,METRO37980M37980,"Philadelphia-Camden-Wilmington, PA-NJ-DE-MD MSA",Philadelphia-Camden-Wilmington,PA-NJ-DE-MD,$1170,$1053,$1287,$1200,$1080,$1320,$1520,$1368,$1672,$2000,$1800,$2200,$2080,$1872,$2288
08312,METRO37980M37980,"Philadelphia-Camden-Wilmington, PA-NJ-DE-MD MSA",Philadelphia-Camden-Wilmington,PA-NJ-DE-MD,$1170,$1053,$1287,$1300,$1170,$1430,$1560,$1404,$1716,$1890,$1701,$2079,$2180,$1962,$2398
08318,METRO37980M37980,"Philadelphia-Camden-Wilmington, PA-NJ-DE-MD MSA",Philadelphia-Camden-Wilmington,PA-NJ-DE-MD,$1260,$1134,$1386,$1400,$1260,$1540,$1680,$1512,$1848,$2030,$1827,$2233,$2340,$2106,$2574
08322,METRO37980M37980,"Philadelphia-Camden-Wilmington, PA-NJ-DE-MD MSA",Philadelphia-Camden-Wilmington,PA-NJ-DE-MD,$1400,$1260,$1540,$1560,$1404,$1716,$1870,$1683,$2057,$2260,$2034,$2486,$2610,$2349,$2871
08328,METRO37980M37980,"Philadelphia-Camden-Wilmington, PA-NJ-DE-MD MSA",Philadelphia-Camden-Wilmington,PA-NJ-DE-MD,$1440,$1296,$1584,$1590,$1431,$1749,$1910,$1719,$2101,$2330,$2097,$2563,$2670,$2403,$2937
08343,METRO37980M37980,"Philadelphia-Camden-Wilmington, PA-NJ-DE-MD MSA",Philadelphia-Camden-Wilmington,PA-NJ-DE-MD,$1790,$1611,$1969,$1990,$1791,$2189,$2380,$2142,$2618,$2880,$2592,$3168,$3320,$2988,$3652
08344,METRO37980M37980,"Philadelphia-Camden-Wilmington, PA-NJ-DE-MD MSA",Philadelphia-Camden-Wilmington,PA-NJ-DE-MD,$1510,$1359,$1661,$1650,$1485,$1815,$2000,$1800,$2200,$2470,$2223,$2717,$2780,$2502,$3058
08347,METRO37980M37980,"Philadelphia-Camden-Wilmington, PA-NJ-DE-MD MSA",Philadelphia-Camden-Wilmington,PA-NJ-DE-MD,$1190,$1071,$1309,$1320,$1188,$1452,$1580,$1422,$1738,$1910,$1719,$2101,$2200,$1980,$2420
08360,METRO37980M37980,"Philadelphia-Camden-Wilmington, PA-NJ-DE-MD MSA",Philadelphia-Camden-Wilmington,PA-NJ-DE-MD,$1150,$1035,$1265,$1190,$1071,$1309,$1510,$1359,$1661,$1990,$1791,$2189,$2080,$1872,$2288
08501,METRO37980M37980,"Philadelphia-Camden-Wilmington, PA-NJ-DE-MD MSA",Philadelphia-Camden-Wilmington,PA-NJ-DE-MD,$1210,$1089,$1331,$1350,$1215,$1485,$1670,$1503,$1837,$2260,$2034,$2486,$2520,$2268,$2772
08505,METRO37980M37980,"Philadelphia-Camden-Wilmington, PA-NJ-DE-MD MSA",Philadelphia-Camden-Wilmington,PA-NJ-DE-MD,$1390,$1251,$1529,$1550,$1395,$1705,$1850,$1665,$2035,$2240,$2016,$2464,$2580,$2322,$2838
08511,METRO37980M37980,"Philadelphia-Camden-Wilmington, PA-NJ-DE-MD MSA",Philadelphia-Camden-Wilmington,PA-NJ-DE-MD,$1020,$918,$1122,$1140,$1026,$1254,$1360,$1224,$1496,$1640,$1476,$1804,$1900,$1710,$2090
08515,METRO37980M37980,"Philadelphia-Camden-Wilmington, PA-NJ-DE-MD MSA",Philadelphia-Camden-Wilmington,PA-NJ-DE-MD,$1880,$1692,$2068,$2100,$1890,$2310,$2510,$2259,$2761,$3030,$2727,$3333,$3500,$3150,$3850
08518,METRO37980M37980,"Philadelphia-Camden-Wilmington, PA-NJ-DE-MD MSA",Philadelphia-Camden-Wilmington,PA-NJ-DE-MD,$1190,$1071,$1309,$1320,$1188,$1452,$1580,$1422,$1738,$1910,$1719,$2101,$2200,$1980,$2420
08533,METRO37980M37980,"Philadelphia-Camden-Wilmington, PA-NJ-DE-MD MSA",Philadelphia-Camden-Wilmington,PA-NJ-DE-MD,$1130,$1017,$1243,$1260,$1134,$1386,$1560,$1404,$1716,$2120,$1908,$2332,$2360,$2124,$2596
08554,METRO37980M37980,"Philadelphia-Camden-Wilmington, PA-NJ-DE-MD MSA",Philadelphia-Camden-Wilmington,PA-NJ-DE-MD,$1460,$1314,$1606,$1620,$1458,$1782,$1940,$1746,$2134,$2350,$2115,$2585,$2710,$2439,$2981
08562,METRO37980M37980,"Philadelphia-Camden-Wilmington, PA-NJ-DE-MD MSA",Philadelphia-Camden-Wilmington,PA-NJ-DE-MD,$1280,$1152,$1408,$1430,$1287,$1573,$1710,$1539,$1881,$2070,$1863,$2277,$2380,$2142,$2618
08610,METRO37980M37980,"Philadelphia-Camden-Wilmington, PA-NJ-DE-MD MSA",Philadelphia-Camden-Wilmington,PA-NJ-DE-MD,$1240,$1116,$1364,$1410,$1269,$1551,$1820,$1638,$2002,$2200,$1980,$2420,$2430,$2187,$2673
08620,METRO37980M37980,"Philadelphia-Camden-Wilmington, PA-NJ-DE-MD MSA",Philadelphia-Camden-Wilmington,PA-NJ-DE-MD,$1130,$1017,$1243,$1280,$1152,$1408,$1630,$1467,$1793,$1970,$1773,$2167,$2190,$1971,$2409
08640,METRO37980M37980,"Philadelphia-Camden-Wilmington, PA-NJ-DE-MD MSA",Philadelphia-Camden-Wilmington,PA-NJ-DE-MD,$1960,$1764,$2156,$2180,$1962,$2398,$2610,$2349,$2871,$3160,$2844,$3476,$3640,$3276,$4004
08641,METRO37980M37980,"Philadelphia-Camden-Wilmington, PA-NJ-DE-MD MSA",Philadelphia-Camden-Wilmington,PA-NJ-DE-MD,$1920,$1728,$2112,$2140,$1926,$2354,$2560,$2304,$2816,$3100,$2790,$3410,$3570,$3213,$3927
08759,METRO37980M37980,"Philadelphia-Camden-Wilmington, PA-NJ-DE-MD MSA",Philadelphia-Camden-Wilmington,PA-NJ-DE-MD,$1080,$972,$1188,$1200,$1080,$1320,$1490,$1341,$1639,$2030,$1827,$2233,$2260,$2034,$2486
18039,METRO37980M37980,"Philadelphia-Camden-Wilmington, PA-NJ-DE-MD MSA",Philadelphia-Camden-Wilmington,PA-NJ-DE-MD,$1370,$1233,$1507,$1530,$1377,$1683,$1830,$1647,$2013,$2210,$1989,$2431,$2550,$2295,$2805
18054,METRO37980M37980,"Philadelphia-Camden-Wilmington, PA-NJ-DE-MD MSA",Philadelphia-Camden-Wilmington,PA-NJ-DE-MD,$1110,$999,$1221,$1240,$1116,$1364,$1480,$1332,$1628,$1790,$1611,$1969,$2060,$1854,$2266
18073,METRO37980M37980,"Philadelphia-Camden-Wilmington, PA-NJ-DE-MD MSA",Philadelphia-Camden-Wilmington,PA-NJ-DE-MD,$1260,$1134,$1386,$1400,$1260,$1540,$1680,$1512,$1848,$2030,$1827,$2233,$2340,$2106,$2574
18074,METRO37980M37980,"Philadelphia-Camden-Wilmington, PA-NJ-DE-MD MSA",Philadelphia-Camden-Wilmington,PA-NJ-DE-MD,$1230,$1107,$1353,$1370,$1233,$1507,$1650,$1485,$1815,$2000,$1800,$2200,$2290,$2061,$2519
18076,METRO37980M37980,"Philadelphia-Camden-Wilmington, PA-NJ-DE-MD MSA",Philadelphia-Camden-Wilmington,PA-NJ-DE-MD,$1460,$1314,$1606,$1630,$1467,$1793,$1950,$1755,$2145,$2360,$2124,$2596,$2720,$2448,$2992
18081,METRO37980M37980,"Philadelphia-Camden-Wilmington, PA-NJ-DE-MD MSA",Philadelphia-Camden-Wilmington,PA-NJ-DE-MD,$1080,$972,$1188,$1240,$1116,$1364,$1540,$1386,$1694,$1930,$1737,$2123,$2080,$1872,$2288
18084,METRO37980M37980,"Philadelphia-Camden-Wilmington, PA-NJ-DE-MD MSA",Philadelphia-Camden-Wilmington,PA-NJ-DE-MD,$1440,$1296,$1584,$1600,$1440,$1760,$1920,$1728,$2112,$2320,$2088,$2552,$2680,$2412,$2948
18901,METRO37980M37980,"Philadelphia-Camden-Wilmington, PA-NJ-DE-MD MSA",Philadelphia-Camden-Wilmington,PA-NJ-DE-MD,$1600,$1440,$1760,$1780,$1602,$1958,$2130,$1917,$2343,$2580,$2322,$2838,$2970,$2673,$3267
18902,METRO37980M37980,"Philadelphia-Camden-Wilmington, PA-NJ-DE-MD MSA",Philadelphia-Camden-Wilmington,PA-NJ-DE-MD,$1820,$1638,$2002,$2030,$1827,$2233,$2430,$2187,$2673,$2940,$2646,$3234,$3390,$3051,$3729
18910,METRO37980M37980,"Philadelphia-Camden-Wilmington, PA-NJ-DE-MD MSA",Philadelphia-Camden-Wilmington,PA-NJ-DE-MD,$1370,$1233,$1507,$1530,$1377,$1683,$1830,$1647,$2013,$2210,$1989,$2431,$2550,$2295,$2805
18912,METRO37980M37980,"Philadelphia-Camden-Wilmington, PA-NJ-DE-MD MSA",Philadelphia-Camden-Wilmington,PA-NJ-DE-MD,$1780,$1602,$1958,$1980,$1782,$2178,$2370,$2133,$2607,$2870,$2583,$3157,$3310,$2979,$3641
18913,METRO37980M37980,"Philadelphia-Camden-Wilmington, PA-NJ-DE-MD MSA",Philadelphia-Camden-Wilmington,PA-NJ-DE-MD,$1730,$1557,$1903,$1930,$1737,$2123,$2310,$2079,$2541,$2800,$2520,$3080,$3230,$2907,$3553
18914,METRO37980M37980,"Philadelphia-Camden-Wilmington, PA-NJ-DE-MD MSA",Philadelphia-Camden-Wilmington,PA-NJ-DE-MD,$1740,$1566,$1914,$1940,$1746,$2134,$2320,$2088,$2552,$2810,$2529,$3091,$3240,$2916,$3564
18915,METRO37980M37980,"Philadelphia-Camden-Wilmington, PA-NJ-DE-MD MSA",Philadelphia-Camden-Wilmington,PA-NJ-DE-MD,$1960,$1764,$2156,$2180,$1962,$2398,$2610,$2349,$2871,$3160,$2844,$3476,$3640,$3276,$4004
18916,METRO37980M37980,"Philadelphia-Camden-Wilmington, PA-NJ-DE-MD MSA",Philadelphia-Camden-Wilmington,PA-NJ-DE-MD,$1370,$1233,$1507,$1530,$1377,$1683,$1830,$1647,$2013,$2210,$1989,$2431,$2550,$2295,$2805
18917,METRO37980M37980,"Philadelphia-Camden-Wilmington, PA-NJ-DE-MD MSA",Philadelphia-Camden-Wilmington,PA-NJ-DE-MD,$1240,$1116,$1364,$1380,$1242,$1518,$1650,$1485,$1815,$2000,$1800,$2200,$2300,$2070,$2530
18918,METRO37980M37980,"Philadelphia-Camden-Wilmington, PA-NJ-DE-MD MSA",Philadelphia-Camden-Wilmington,PA-NJ-DE-MD,$1440,$1296,$1584,$1600,$1440,$1760,$1920,$1728,$2112,$2320,$2088,$2552,$2680,$2412,$2948
18920,METRO37980M37980,"Philadelphia-Camden-Wilmington, PA-NJ-DE-MD MSA",Philadelphia-Camden-Wilmington,PA-NJ-DE-MD,$1500,$1350,$1650,$1670,$1503,$1837,$2000,$1800,$2200,$2420,$2178,$2662,$2780,$2502,$3058
18921,METRO37980M37980,"Philadelphia-Camden-Wilmington, PA-NJ-DE-MD MSA",Philadelphia-Camden-Wilmington,PA-NJ-DE-MD,$1370,$1233,$1507,$1530,$1377,$1683,$1830,$1647,$2013,$2210,$1989,$2431,$2550,$2295,$2805
18922,METRO37980M37980,"Philadelphia-Camden-Wilmington, PA-NJ-DE-MD MSA",Philadelphia-Camden-Wilmington,PA-NJ-DE-MD,$1370,$1233,$1507,$1530,$1377,$1683,$1830,$1647,$2013,$2210,$1989,$2431,$2550,$2295,$2805
18923,METRO37980M37980,"Philadelphia-Camden-Wilmington, PA-NJ-DE-MD MSA",Philadelphia-Camden-Wilmington,PA-NJ-DE-MD,$1600,$1440,$1760,$1790,$1611,$1969,$2140,$1926,$2354,$2590,$2331,$2849,$2980,$2682,$3278
18925,METRO37980M37980,"Philadelphia-Camden-Wilmington, PA-NJ-DE-MD MSA",Philadelphia-Camden-Wilmington,PA-NJ-DE-MD,$1960,$1764,$2156,$2180,$1962,$2398,$2610,$2349,$2871,$3160,$2844,$3476,$3640,$3276,$4004
18927,METRO37980M37980,"Philadelphia-Camden-Wilmington, PA-NJ-DE-MD MSA",Philadelphia-Camden-Wilmington,PA-NJ-DE-MD,$1370,$1233,$1507,$1530,$1377,$1683,$1830,$1647,$2013,$2210,$1989,$2431,$2550,$2295,$2805
18928,METRO37980M37980,"Philadelphia-Camden-Wilmington, PA-NJ-DE-MD MSA",Philadelphia-Camden-Wilmington,PA-NJ-DE-MD,$1370,$1233,$1507,$1530,$1377,$1683,$1830,$1647,$2013,$2210,$1989,$2431,$2550,$2295,$2805
18929,METRO37980M37980,"Philadelphia-Camden-Wilmington, PA-NJ-DE-MD MSA",Philadelphia-Camden-Wilmington,PA-NJ-DE-MD,$1960,$1764,$2156,$2180,$1962,$2398,$2610,$2349,$2871,$3160,$2844,$3476,$3640,$3276,$4004
18930,METRO37980M37980,"Philadelphia-Camden-Wilmington, PA-NJ-DE-MD MSA",Philadelphia-Camden-Wilmington,PA-NJ-DE-MD,$1520,$1368,$1672,$1700,$1530,$1870,$2030,$1827,$2233,$2450,$2205,$2695,$2830,$2547,$3113
18931,METRO37980M37980,"Philadelphia-Camden-Wilmington, PA-NJ-DE-MD MSA",Philadelphia-Camden-Wilmington,PA-NJ-DE-MD,$1370,$1233,$1507,$1530,$1377,$1683,$1830,$1647,$2013,$2210,$1989,$2431,$2550,$2295,$2805
18932,METRO37980M37980,"Philadelphia-Camden-Wilmington, PA-NJ-DE-MD MSA",Philadelphia-Camden-Wilmington,PA-NJ-DE-MD,$1580,$1422,$1738,$1760,$1584,$1936,$2100,$1890,$2310,$2550,$2295,$2805,$2940,$2646,$3234
18933,METRO37980M37980,"Philadelphia-Camden-Wilmington, PA-NJ-DE-MD MSA",Philadelphia-Camden-Wilmington,PA-NJ-DE-MD,$1370,$1233,$1507,$1530,$1377,$1683,$1830,$1647,$2013,$2210,$1989,$2431,$2550,$2295,$2805
18934,METRO37980M37980,"Philadelphia-Camden-Wilmington, PA-NJ-DE-MD MSA",Philadelphia-Camden-Wilmington,PA-NJ-DE-MD,$1370,$1233,$1507,$1530,$1377,$1683,$1830,$1647,$2013,$2210,$1989,$2431,$2550,$2295,$2805
18935,METRO37980M37980,"Philadelphia-Camden-Wilmington, PA-NJ-DE-MD MSA",Philadelphia-Camden-Wilmington,PA-NJ-DE-MD,$1280,$1152,$1408,$1430,$1287,$1573,$1710,$1539,$1881,$2070,$1863,$2277,$2380,$2142,$2618
18936,METRO37980M37980,"Philadelphia-Camden-Wilmington, PA-NJ-DE-MD MSA",Philadelphia-Camden-Wilmington,PA-NJ-DE-MD,$1490,$1341,$1639,$1660,$1494,$1826,$1990,$1791,$2189,$2410,$2169,$2651,$2780,$2502,$3058
18938,METRO37980M37980,"Philadelphia-Camden-Wilmington, PA-NJ-DE-MD MSA",Philadelphia-Camden-Wilmington,PA-NJ-DE-MD,$1680,$1512,$1848,$1870,$1683,$2057,$2240,$2016,$2464,$2710,$2439,$2981,$3120,$2808,$3432
18940,METRO37980M37980,"Philadelphia-Camden-Wilmington, PA-NJ-DE-MD MSA",Philadelphia-Camden-Wilmington,PA-NJ-DE-MD,$1940,$1746,$2134,$2160,$1944,$2376,$2580,$2322,$2838,$3120,$2808,$3432,$3600,$3240,$3960
18942,METRO37980M37980,"Philadelphia-Camden-Wilmington, PA-NJ-DE-MD MSA",Philadelphia-Camden-Wilmington,PA-NJ-DE-MD,$1150,$1035,$1265,$1280,$1152,$1408,$1530,$1377,$1683,$1850,$1665,$2035,$2130,$1917,$2343
18943,METRO37980M37980,"Philadelphia-Camden-Wilmington, PA-NJ-DE-MD MSA",Philadelphia-Camden-Wilmington,PA-NJ-DE-MD,$1370,$1233,$1507,$1530,$1377,$1683,$1830,$1647,$2013,$2210,$1989,$2431,$2550,$2295,$2805
18944,METRO37980M37980,"Philadelphia-Camden-Wilmington, PA-NJ-DE-MD MSA",Philadelphia-Camden-Wilmington,PA-NJ-DE-MD,$1330,$1197,$1463,$1480,$1332,$1628,$1770,$1593,$1947,$2140,$1926,$2354,$2470,$2223,$2717
18946,METRO37980M37980,"Philadelphia-Camden-Wilmington, PA-NJ-DE-MD MSA",Philadelphia-Camden-Wilmington,PA-NJ-DE-MD,$1370,$1233,$1507,$1530,$1377,$1683,$1830,$1647,$2013,$2210,$1989,$2431,$2550,$2295,$2805
18947,METRO37980M37980,"Philadelphia-Camden-Wilmington, PA-NJ-DE-MD MSA",Philadelphia-Camden-Wilmington,PA-NJ-DE-MD,$1490,$1341,$1639,$1660,$1494,$1826,$1990,$1791,$2189,$2410,$2169,$2651,$2780,$2502,$3058
18949,METRO37980M37980,"Philadelphia-Camden-Wilmington, PA-NJ-DE-MD MSA",Philadelphia-Camden-Wilmington,PA-NJ-DE-MD,$1370,$1233,$1507,$1530,$1377,$1683,$1830,$1647,$2013,$2210,$1989,$2431,$2550,$2295,$2805
18950,METRO37980M37980,"Philadelphia-Camden-Wilmington, PA-NJ-DE-MD MSA",Philadelphia-Camden-Wilmington,PA-NJ-DE-MD,$1520,$1368,$1672,$1690,$1521,$1859,$2060,$1854,$2266,$2500,$2250,$2750,$2840,$2556,$3124
18953,METRO37980M37980,"Philadelphia-Camden-Wilmington, PA-NJ-DE-MD MSA",Philadelphia-Camden-Wilmington,PA-NJ-DE-MD,$1370,$1233,$1507,$1530,$1377,$1683,$1830,$1647,$2013,$2210,$1989,$2431,$2550,$2295,$2805
18954,METRO37980M37980,"Philadelphia-Camden-Wilmington, PA-NJ-DE-MD MSA",Philadelphia-Camden-Wilmington,PA-NJ-DE-MD,$1730,$1557,$1903,$1920,$1728,$2112,$2300,$2070,$2530,$2780,$2502,$3058,$3210,$2889,$3531
18955,METRO37980M37980,"Philadelphia-Camden-Wilmington, PA-NJ-DE-MD MSA",Philadelphia-Camden-Wilmington,PA-NJ-DE-MD,$1080,$972,$1188,$1200,$1080,$1320,$1440,$1296,$1584,$1740,$1566,$1914,$2010,$1809,$2211
18956,METRO37980M37980,"Philadelphia-Camden-Wilmington, PA-NJ-DE-MD MSA",Philadelphia-Camden-Wilmington,PA-NJ-DE-MD,$1370,$1233,$1507,$1530,$1377,$1683,$1830,$1647,$2013,$2210,$1989,$2431,$2550,$2295,$2805
18957,METRO37980M37980,"Philadelphia-Camden-Wilmington, PA-NJ-DE-MD MSA",Philadelphia-Camden-Wilmington,PA-NJ-DE-MD,$1440,$1296,$1584,$1600,$1440,$1760,$1920,$1728,$2112,$2320,$2088,$2552,$2680,$2412,$2948
18958,METRO37980M37980,"Philadelphia-Camden-Wilmington, PA-NJ-DE-MD MSA",Philadelphia-Camden-Wilmington,PA-NJ-DE-MD,$1440,$1296,$1584,$1600,$1440,$1760,$1920,$1728,$2112,$2320,$2088,$2552,$2680,$2412,$2948
18960,METRO37980M37980,"Philadelphia-Camden-Wilmington, PA-NJ-DE-MD MSA",Philadelphia-Camden-Wilmington,PA-NJ-DE-MD,$1370,$1233,$1507,$1530,$1377,$1683,$1830,$1647,$2013,$2210,$1989,$2431,$2550,$2295,$2805
18962,METRO37980M37980,"Philadelphia-Camden-Wilmington, PA-NJ-DE-MD MSA",Philadelphia-Camden-Wilmington,PA-NJ-DE-MD,$1260,$1134,$1386,$1400,$1260,$1540,$1680,$1512,$1848,$2030,$1827,$2233,$2340,$2106,$2574
18963,METRO37980M37980,"Philadelphia-Camden-Wilmington, PA-NJ-DE-MD MSA",Philadelphia-Camden-Wilmington,PA-NJ-DE-MD,$1370,$1233,$1507,$1530,$1377,$1683,$1830,$1647,$2013,$2210,$1989,$2431,$2550,$2295,$2805
18964,METRO37980M37980,"Philadelphia-Camden-Wilmington, PA-NJ-DE-MD MSA",Philadelphia-Camden-Wilmington,PA-NJ-DE-MD,$1210,$1089,$1331,$1340,$1206,$1474,$1610,$1449,$1771,$1950,$1755,$2145,$2250,$2025,$2475
18966,METRO37980M37980,"Philadelphia-Camden-Wilmington, PA-NJ-DE-MD MSA",Philadelphia-Camden-Wilmington,PA-NJ-DE-MD,$1530,$1377,$1683,$1700,$1530,$1870,$2040,$1836,$2244,$2470,$2223,$2717,$2840,$2556,$3124
18968,METRO37980M37980,"Philadelphia-Camden-Wilmington, PA-NJ-DE-MD MSA",Philadelphia-Camden-Wilmington,PA-NJ-DE-MD,$1370,$1233,$1507,$1530,$1377,$1683,$1830,$1647,$2013,$2210,$1989,$2431,$2550,$2295,$2805
18969,METRO37980M37980,"Philadelphia-Camden-Wilmington, PA-NJ-DE-MD MSA",Philadelphia-Camden-Wilmington,PA-NJ-DE-MD,$1200,$1080,$1320,$1340,$1206,$1474,$1600,$1440,$1760,$1930,$1737,$2123,$2230,$2007,$2453
18970,METRO37980M37980,"Philadelphia-Camden-Wilmington, PA-NJ-DE-MD MSA",Philadelphia-Camden-Wilmington,PA-NJ-DE-MD,$1040,$936,$1144,$1150,$1035,$1265,$1380,$1242,$1518,$1670,$1503,$1837,$1920,$1728,$2112
18971,METRO37980M37980,"Philadelphia-Camden-Wilmington, PA-NJ-DE-MD MSA",Philadelphia-Camden-Wilmington,PA-NJ-DE-MD,$1440,$1296,$1584,$1600,$1440,$1760,$1920,$1728,$2112,$2320,$2088,$2552,$2680,$2412,$2948
18972,METRO37980M37980,"Philadelphia-Camden-Wilmington, PA-NJ-DE-MD MSA",Philadelphia-Camden-Wilmington,PA-NJ-DE-MD,$1570,$1413,$1727,$1750,$1575,$1925,$2090,$1881,$2299,$2530,$2277,$2783,$2910,$2619,$3201
18974,METRO37980M37980,"Philadelphia-Camden-Wilmington, PA-NJ-DE-MD MSA",Philadelphia-Camden-Wilmington,PA-NJ-DE-MD,$1430,$1287,$1573,$1590,$1431,$1749,$1900,$1710,$2090,$2300,$2070,$2530,$2650,$2385,$2915
18976,METRO37980M37980,"Philadelphia-Camden-Wilmington, PA-NJ-DE-MD MSA",Philadelphia-Camden-Wilmington,PA-NJ-DE-MD,$1480,$1332,$1628,$1650,$1485,$1815,$1970,$1773,$2167,$2380,$2142,$2618,$2750,$2475,$3025
18977,METRO37980M37980,"Philadelphia-Camden-Wilmington, PA-NJ-DE-MD MSA",Philadelphia-Camden-Wilmington,PA-NJ-DE-MD,$1760,$1584,$1936,$1970,$1773,$2167,$2430,$2187,$2673,$2930,$2637,$3223,$3330,$2997,$3663
18979,METRO37980M37980,"Philadelphia-Camden-Wilmington, PA-NJ-DE-MD MSA",Philadelphia-Camden-Wilmington,PA-NJ-DE-MD,$1440,$1296,$1584,$1600,$1440,$1760,$1920,$1728,$2112,$2320,$2088,$2552,$2680,$2412,$2948
18980,METRO37980M37980,"Philadelphia-Camden-Wilmington, PA-NJ-DE-MD MSA",Philadelphia-Camden-Wilmington,PA-NJ-DE-MD,$1260,$1134,$1386,$1400,$1260,$1540,$1680,$1512,$1848,$2030,$1827,$2233,$2340,$2106,$2574
18981,METRO37980M37980,"Philadelphia-Camden-Wilmington, PA-NJ-DE-MD MSA",Philadelphia-Camden-Wilmington,PA-NJ-DE-MD,$1370,$1233,$1507,$1530,$1377,$1683,$1830,$1647,$2013,$2210,$1989,$2431,$2550,$2295,$2805
19001,METRO37980M37980,"Philadelphia-Camden-Wilmington, PA-NJ-DE-MD MSA",Philadelphia-Camden-Wilmington,PA-NJ-DE-MD,$1250,$1125,$1375,$1390,$1251,$1529,$1660,$1494,$1826,$2010,$1809,$2211,$2310,$2079,$2541
19002,METRO37980M37980,"Philadelphia-Camden-Wilmington, PA-NJ-DE-MD MSA",Philadelphia-Camden-Wilmington,PA-NJ-DE-MD,$1340,$1206,$1474,$1500,$1350,$1650,$1790,$1611,$1969,$2160,$1944,$2376,$2500,$2250,$2750
19003,METRO37980M37980,"Philadelphia-Camden-Wilmington, PA-NJ-DE-MD MSA",Philadelphia-Camden-Wilmington,PA-NJ-DE-MD,$1550,$1395,$1705,$1730,$1557,$1903,$2070,$1863,$2277,$2500,$2250,$2750,$2890,$2601,$3179
19004,METRO37980M37980,"Philadelphia-Camden-Wilmington, PA-NJ-DE-MD MSA",Philadelphia-Camden-Wilmington,PA-NJ-DE-MD,$1720,$1548,$1892,$1910,$1719,$2101,$2290,$2061,$2519,$2770,$2493,$3047,$3190,$2871,$3509
19006,METRO37980M37980,"Philadelphia-Camden-Wilmington, PA-NJ-DE-MD MSA",Philadelphia-Camden-Wilmington,PA-NJ-DE-MD,$1430,$1287,$1573,$1600,$1440,$1760,$1910,$1719,$2101,$2310,$2079,$2541,$2660,$2394,$2926
19007,METRO37980M37980,"Philadelphia-Camden-Wilmington, PA-NJ-DE-MD MSA",Philadelphia-Camden-Wilmington,PA-NJ-DE-MD,$1060,$954,$1166,$1180,$1062,$1298,$1410,$1269,$1551,$1700,$1530,$1870,$1970,$1773,$2167
19008,METRO37980M37980,"Philadelphia-Camden-Wilmington, PA-NJ-DE-MD MSA",Philadelphia-Camden-Wilmington,PA-NJ-DE-MD,$1460,$1314,$1606,$1620,$1458,$1782,$1940,$1746,$2134,$2350,$2115,$2585,$2710,$2439,$2981
19009,METRO37980M37980,"Philadelphia-Camden-Wilmington, PA-NJ-DE-MD MSA",Philadelphia-Camden-Wilmington,PA-NJ-DE-MD,$1440,$1296,$1584,$1600,$1440,$1760,$1920,$1728,$2112,$2320,$2088,$2552,$2680,$2412,$2948
19010,METRO37980M37980,"Philadelphia-Camden-Wilmington, PA-NJ-DE-MD MSA",Philadelphia-Camden-Wilmington,PA-NJ-DE-MD,$1780,$1602,$1958,$1980,$1782,$2178,$2370,$2133,$2607,$2870,$2583,$3157,$3300,$2970,$3630
19012,METRO37980M37980,"Philadelphia-Camden-Wilmington, PA-NJ-DE-MD MSA",Philadelphia-Camden-Wilmington,PA-NJ-DE-MD,$1160,$1044,$1276,$1290,$1161,$1419,$1540,$1386,$1694,$1860,$1674,$2046,$2150,$1935,$2365
19013,METRO37980M37980,"Philadelphia-Camden-Wilmington, PA-NJ-DE-MD MSA",Philadelphia-Camden-Wilmington,PA-NJ-DE-MD,$990,$891,$1089,$1100,$990,$1210,$1320,$1188,$1452,$1600,$1440,$1760,$1840,$1656,$2024
19014,METRO37980M37980,"Philadelphia-Camden-Wilmington, PA-NJ-DE-MD MSA",Philadelphia-Camden-Wilmington,PA-NJ-DE-MD,$1280,$1152,$1408,$1430,$1287,$1573,$1710,$1539,$1881,$2070,$1863,$2277,$2380,$2142,$2618
19015,METRO37980M37980,"Philadelphia-Camden-Wilmington, PA-NJ-DE-MD MSA",Philadelphia-Camden-Wilmington,PA-NJ-DE-MD,$1200,$1080,$1320,$1340,$1206,$1474,$1600,$1440,$1760,$1930,$1737,$2123,$2230,$2007,$2453
19016,METRO37980M37980,"Philadelphia-Camden-Wilmington, PA-NJ-DE-MD MSA",Philadelphia-Camden-Wilmington,PA-NJ-DE-MD,$1200,$1080,$1320,$1340,$1206,$1474,$1600,$1440,$1760,$1930,$1737,$2123,$2230,$2007,$2453
19017,METRO37980M37980,"Philadelphia-Camden-Wilmington, PA-NJ-DE-MD MSA",Philadelphia-Camden-Wilmington,PA-NJ-DE-MD,$1460,$1314,$1606,$1630,$1467,$1793,$1950,$1755,$2145,$2360,$2124,$2596,$2710,$2439,$2981
19018,METRO37980M37980,"Philadelphia-Camden-Wilmington, PA-NJ-DE-MD MSA",Philadelphia-Camden-Wilmington,PA-NJ-DE-MD,$1190,$1071,$1309,$1330,$1197,$1463,$1590,$1431,$1749,$1920,$1728,$2112,$2220,$1998,$2442
19020,METRO37980M37980,"Philadelphia-Camden-Wilmington, PA-NJ-DE-MD MSA",Philadelphia-Camden-Wilmington,PA-NJ-DE-MD,$1450,$1305,$1595,$1610,$1449,$1771,$1930,$1737,$2123,$2330,$2097,$2563,$2690,$2421,$2959
19021,METRO37980M37980,"Philadelphia-Camden-Wilmington, PA-NJ-DE-MD MSA",Philadelphia-Camden-Wilmington,PA-NJ-DE-MD,$1190,$1071,$1309,$1320,$1188,$1452,$1580,$1422,$1738,$1910,$1719,$2101,$2200,$1980,$2420
19022,METRO37980M37980,"Philadelphia-Camden-Wilmington, PA-NJ-DE-MD MSA",Philadelphia-Camden-Wilmington,PA-NJ-DE-MD,$1090,$981,$1199,$1210,$1089,$1331,$1450,$1305,$1595,$1750,$1575,$1925,$2020,$1818,$2222
19023,METRO37980M37980,"Philadelphia-Camden-Wilmington, PA-NJ-DE-MD MSA",Philadelphia-Camden-Wilmington,PA-NJ-DE-MD,$1180,$1062,$1298,$1310,$1179,$1441,$1570,$1413,$1727,$1900,$1710,$2090,$2190,$1971,$2409
19025,METRO37980M37980,"Philadelphia-Camden-Wilmington, PA-NJ-DE-MD MSA",Philadelphia-Camden-Wilmington,PA-NJ-DE-MD,$1960,$1764,$2156,$2180,$1962,$2398,$2610,$2349,$2871,$3160,$2844,$3476,$3640,$3276,$4004
19026,METRO37980M37980,"Philadelphia-Camden-Wilmington, PA-NJ-DE-MD MSA",Philadelphia-Camden-Wilmington,PA-NJ-DE-MD,$1220,$1098,$1342,$1350,$1215,$1485,$1620,$1458,$1782,$1960,$1764,$2156,$2260,$2034,$2486
19027,METRO37980M37980,"Philadelphia-Camden-Wilmington, PA-NJ-DE-MD MSA",Philadelphia-Camden-Wilmington,PA-NJ-DE-MD,$1250,$1125,$1375,$1400,$1260,$1540,$1670,$1503,$1837,$2020,$1818,$2222,$2330,$2097,$2563
19028,METRO37980M37980,"Philadelphia-Camden-Wilmington, PA-NJ-DE-MD MSA",Philadelphia-Camden-Wilmington,PA-NJ-DE-MD,$1200,$1080,$1320,$1340,$1206,$1474,$1600,$1440,$1760,$1930,$1737,$2123,$2230,$2007,$2453
19029,METRO37980M37980,"Philadelphia-Camden-Wilmington, PA-NJ-DE-MD MSA",Philadelphia-Camden-Wilmington,PA-NJ-DE-MD,$1230,$1107,$1353,$1370,$1233,$1507,$1640,$1476,$1804,$1980,$1782,$2178,$2290,$2061,$2519
19030,METRO37980M37980,"Philadelphia-Camden-Wilmington, PA-NJ-DE-MD MSA",Philadelphia-Camden-Wilmington,PA-NJ-DE-MD,$1230,$1107,$1353,$1370,$1233,$1507,$1640,$1476,$1804,$1980,$1782,$2178,$2290,$2061,$2519
19031,METRO37980M37980,"Philadelphia-Camden-Wilmington, PA-NJ-DE-MD MSA",Philadelphia-Camden-Wilmington,PA-NJ-DE-MD,$1640,$1476,$1804,$1830,$1647,$2013,$2190,$1971,$2409,$2650,$2385,$2915,$3050,$2745,$3355
19032,METRO37980M37980,"Philadelphia-Camden-Wilmington, PA-NJ-DE-MD MSA",Philadelphia-Camden-Wilmington,PA-NJ-DE-MD,$1370,$1233,$1507,$1530,$1377,$1683,$1830,$1647,$2013,$2210,$1989,$2431,$2550,$2295,$2805
19033,METRO37980M37980,"Philadelphia-Camden-Wilmington, PA-NJ-DE-MD MSA",Philadelphia-Camden-Wilmington,PA-NJ-DE-MD,$1420,$1278,$1562,$1580,$1422,$1738,$1890,$1701,$2079,$2290,$2061,$2519,$2640,$2376,$2904
19034,METRO37980M37980,"Philadelphia-Camden-Wilmington, PA-NJ-DE-MD MSA",Philadelphia-Camden-Wilmington,PA-NJ-DE-MD,$1260,$1134,$1386,$1400,$1260,$1540,$1680,$1512,$1848,$2030,$1827,$2233,$2340,$2106,$2574
19035,METRO37980M37980,"Philadelphia-Camden-Wilmington, PA-NJ-DE-MD MSA",Philadelphia-Camden-Wilmington,PA-NJ-DE-MD,$1540,$1386,$1694,$1710,$1539,$1881,$2050,$1845,$2255,$2480,$2232,$2728,$2860,$2574,$3146
19036,METRO37980M37980,"Philadelphia-Camden-Wilmington, PA-NJ-DE-MD MSA",Philadelphia-Camden-Wilmington,PA-NJ-DE-MD,$1170,$1053,$1287,$1300,$1170,$1430,$1560,$1404,$1716,$1890,$1701,$2079,$2180,$1962,$2398
19038,METRO37980M37980,"Philadelphia-Camden-Wilmington, PA-NJ-DE-MD MSA",Philadelphia-Camden-Wilmington,PA-NJ-DE-MD,$1310,$1179,$1441,$1450,$1305,$1595,$1740,$1566,$1914,$2100,$1890,$2310,$2430,$2187,$2673
19040,METRO37980M37980,"Philadelphia-Camden-Wilmington, PA-NJ-DE-MD MSA",Philadelphia-Camden-Wilmington,PA-NJ-DE-MD,$1420,$1278,$1562,$1580,$1422,$1738,$1890,$1701,$2079,$2290,$2061,$2519,$2640,$2376,$2904
19041,METRO37980M37980,"Philadelphia-Camden-Wilmington, PA-NJ-DE-MD MSA",Philadelphia-Camden-Wilmington,PA-NJ-DE-MD,$1800,$1620,$1980,$2000,$1800,$2200,$2400,$2160,$2640,$2900,$2610,$3190,$3350,$3015,$3685
19043,METRO37980M37980,"Philadelphia-Camden-Wilmington, PA-NJ-DE-MD MSA",Philadelphia-Camden-Wilmington,PA-NJ-DE-MD,$1100,$990,$1210,$1230,$1107,$1353,$1470,$1323,$1617,$1780,$1602,$1958,$2050,$1845,$2255
19044,METRO37980M37980,"Philadelphia-Camden-Wilmington, PA-NJ-DE-MD MSA",Philadelphia-Camden-Wilmington,PA-NJ-DE-MD,$1410,$1269,$1551,$1570,$1413,$1727,$1880,$1692,$2068,$2270,$2043,$2497,$2620,$2358,$2882
19046,METRO37980M37980,"Philadelphia-Camden-Wilmington, PA-NJ-DE-MD MSA",Philadelphia-Camden-Wilmington,PA-NJ-DE-MD,$1450,$1305,$1595,$1610,$1449,$1771,$1930,$1737,$2123,$2330,$2097,$2563,$2690,$2421,$2959
19047,METRO37980M37980,"Philadelphia-Camden-Wilmington, PA-NJ-DE-MD MSA",Philadelphia-Camden-Wilmington,PA-NJ-DE-MD,$1590,$1431,$1749,$1770,$1593,$1947,$2120,$1908,$2332,$2560,$2304,$2816,$2960,$2664,$3256
19050,METRO37980M37980,"Philadelphia-Camden-Wilmington, PA-NJ-DE-MD MSA",Philadelphia-Camden-Wilmington,PA-NJ-DE-MD,$1140,$1026,$1254,$1270,$1143,$1397,$1520,$1368,$1672,$1840,$1656,$2024,$2120,$1908,$2332
19052,METRO37980M37980,"Philadelphia-Camden-Wilmington, PA-NJ-DE-MD MSA",Philadelphia-Camden-Wilmington,PA-NJ-DE-MD,$1200,$1080,$1320,$1340,$1206,$1474,$1600,$1440,$1760,$1930,$1737,$2123,$2230,$2007,$2453
19053,METRO37980M37980,"Philadelphia-Camden-Wilmington, PA-NJ-DE-MD MSA",Philadelphia-Camden-Wilmington,PA-NJ-DE-MD,$1310,$1179,$1441,$1450,$1305,$1595,$1740,$1566,$1914,$2100,$1890,$2310,$2430,$2187,$2673
19054,METRO37980M37980,"Philadelphia-Camden-Wilmington, PA-NJ-DE-MD MSA",Philadelphia-Camden-Wilmington,PA-NJ-DE-MD,$1310,$1179,$1441,$1460,$1314,$1606,$1750,$1575,$1925,$2120,$1908,$2332,$2440,$2196,$2684
19055,METRO37980M37980,"Philadelphia-Camden-Wilmington, PA-NJ-DE-MD MSA",Philadelphia-Camden-Wilmington,PA-NJ-DE-MD,$1340,$1206,$1474,$1500,$1350,$1650,$1790,$1611,$1969,$2160,$1944,$2376,$2500,$2250,$2750
19056,METRO37980M37980,"Philadelphia-Camden-Wilmington, PA-NJ-DE-MD MSA",Philadelphia-Camden-Wilmington,PA-NJ-DE-MD,$1340,$1206,$1474,$1490,$1341,$1639,$1780,$1602,$1958,$2150,$1935,$2365,$2480,$2232,$2728
19057,METRO37980M37980,"Philadelphia-Camden-Wilmington, PA-NJ-DE-MD MSA",Philadelphia-Camden-Wilmington,PA-NJ-DE-MD,$1300,$1170,$1430,$1450,$1305,$1595,$1730,$1557,$1903,$2090,$1881,$2299,$2410,$2169,$2651
19058,METRO37980M37980,"Philadelphia-Camden-Wilmington, PA-NJ-DE-MD MSA",Philadelphia-Camden-Wilmington,PA-NJ-DE-MD,$1370,$1233,$1507,$1530,$1377,$1683,$1830,$1647,$2013,$2210,$1989,$2431,$2550,$2295,$2805
19060,METRO37980M37980,"Philadelphia-Camden-Wilmington, PA-NJ-DE-MD MSA",Philadelphia-Camden-Wilmington,PA-NJ-DE-MD,$1630,$1467,$1793,$1810,$1629,$1991,$2170,$1953,$2387,$2620,$2358,$2882,$3020,$2718,$3322
19061,METRO37980M37980,"Philadelphia-Camden-Wilmington, PA-NJ-DE-MD MSA",Philadelphia-Camden-Wilmington,PA-NJ-DE-MD,$1170,$1053,$1287,$1300,$1170,$1430,$1560,$1404,$1716,$1890,$1701,$2079,$2180,$1962,$2398
19063,METRO37980M37980,"Philadelphia-Camden-Wilmington, PA-NJ-DE-MD MSA",Philadelphia-Camden-Wilmington,PA-NJ-DE-MD,$1360,$1224,$1496,$1510,$1359,$1661,$1810,$1629,$1991,$2190,$1971,$2409,$2520,$2268,$2772
19064,METRO37980M37980,"Philadelphia-Camden-Wilmington, PA-NJ-DE-MD MSA",Philadelphia-Camden-Wilmington,PA-NJ-DE-MD,$1430,$1287,$1573,$1590,$1431,$1749,$1900,$1710,$2090,$2300,$2070,$2530,$2650,$2385,$2915
19066,METRO37980M37980,"Philadelphia-Camden-Wilmington, PA-NJ-DE-MD MSA",Philadelphia-Camden-Wilmington,PA-NJ-DE-MD,$1960,$1764,$2156,$2180,$1962,$2398,$2610,$2349,$2871,$3160,$2844,$3476,$3640,$3276,$4004
19067,METRO37980M37980,"Philadelphia-Camden-Wilmington, PA-NJ-DE-MD MSA",Philadelphia-Camden-Wilmington,PA-NJ-DE-MD,$1400,$1260,$1540,$1560,$1404,$1716,$1870,$1683,$2057,$2260,$2034,$2486,$2610,$2349,$2871
19070,METRO37980M37980,"Philadelphia-Camden-Wilmington, PA-NJ-DE-MD MSA",Philadelphia-Camden-Wilmington,PA-NJ-DE-MD,$1130,$1017,$1243,$1250,$1125,$1375,$1500,$1350,$1650,$1810,$1629,$1991,$2090,$1881,$2299
19072,METRO37980M37980,"Philadelphia-Camden-Wilmington, PA-NJ-DE-MD MSA",Philadelphia-Camden-Wilmington,PA-NJ-DE-MD,$1670,$1503,$1837,$1860,$1674,$2046,$2230,$2007,$2453,$2700,$2430,$2970,$3110,$2799,$3421
19073,METRO37980M37980,"Philadelphia-Camden-Wilmington, PA-NJ-DE-MD MSA",Philadelphia-Camden-Wilmington,PA-NJ-DE-MD,$1630,$1467,$1793,$1810,$1629,$1991,$2170,$1953,$2387,$2620,$2358,$2882,$3030,$2727,$3333
19074,METRO37980M37980,"Philadelphia-Camden-Wilmington, PA-NJ-DE-MD MSA",Philadelphia-Camden-Wilmington,PA-NJ-DE-MD,$1130,$1017,$1243,$1260,$1134,$1386,$1510,$1359,$1661,$1830,$1647,$2013,$2110,$1899,$2321
19075,METRO37980M37980,"Philadelphia-Camden-Wilmington, PA-NJ-DE-MD MSA",Philadelphia-Camden-Wilmington,PA-NJ-DE-MD,$1190,$1071,$1309,$1330,$1197,$1463,$1590,$1431,$1749,$1920,$1728,$2112,$2220,$1998,$2442
19076,METRO37980M37980,"Philadelphia-Camden-Wilmington, PA-NJ-DE-MD MSA",Philadelphia-Camden-Wilmington,PA-NJ-DE-MD,$1130,$1017,$1243,$1250,$1125,$1375,$1500,$1350,$1650,$1810,$1629,$1991,$2090,$1881,$2299
19078,METRO37980M37980,"Philadelphia-Camden-Wilmington, PA-NJ-DE-MD MSA",Philadelphia-Camden-Wilmington,PA-NJ-DE-MD,$1110,$999,$1221,$1240,$1116,$1364,$1480,$1332,$1628,$1790,$1611,$1969,$2060,$1854,$2266
19079,METRO37980M37980,"Philadelphia-Camden-Wilmington, PA-NJ-DE-MD MSA",Philadelphia-Camden-Wilmington,PA-NJ-DE-MD,$1190,$1071,$1309,$1330,$1197,$1463,$1590,$1431,$1749,$1920,$1728,$2112,$2220,$1998,$2442
19081,METRO37980M37980,"Philadelphia-Camden-Wilmington, PA-NJ-DE-MD MSA",Philadelphia-Camden-Wilmington,PA-NJ-DE-MD,$1210,$1089,$1331,$1340,$1206,$1474,$1610,$1449,$1771,$1950,$1755,$2145,$2250,$2025,$2475
19082,METRO37980M37980,"Philadelphia-Camden-Wilmington, PA-NJ-DE-MD MSA",Philadelphia-Camden-Wilmington,PA-NJ-DE-MD,$1110,$999,$1221,$1240,$1116,$1364,$1480,$1332,$1628,$1790,$1611,$1969,$2060,$1854,$2266
19083,METRO37980M37980,"Philadelphia-Camden-Wilmington, PA-NJ-DE-MD MSA",Philadelphia-Camden-Wilmington,PA-NJ-DE-MD,$1250,$1125,$1375,$1400,$1260,$1540,$1670,$1503,$1837,$2020,$1818,$2222,$2330,$2097,$2563
19085,METRO37980M37980,"Philadelphia-Camden-Wilmington, PA-NJ-DE-MD MSA",Philadelphia-Camden-Wilmington,PA-NJ-DE-MD,$1770,$1593,$1947,$1970,$1773,$2167,$2350,$2115,$2585,$2850,$2565,$3135,$3280,$2952,$3608
19086,METRO37980M37980,"Philadelphia-Camden-Wilmington, PA-NJ-DE-MD MSA",Philadelphia-Camden-Wilmington,PA-NJ-DE-MD,$1420,$1278,$1562,$1580,$1422,$1738,$1890,$1701,$2079,$2290,$2061,$2519,$2640,$2376,$2904
19087,METRO37980M37980,"Philadelphia-Camden-Wilmington, PA-NJ-DE-MD MSA",Philadelphia-Camden-Wilmington,PA-NJ-DE-MD,$1820,$1638,$2002,$2020,$1818,$2222,$2420,$2178,$2662,$2930,$2637,$3223,$3370,$3033,$3707
19090,METRO37980M37980,"Philadelphia-Camden-Wilmington, PA-NJ-DE-MD MSA",Philadelphia-Camden-Wilmington,PA-NJ-DE-MD,$1410,$1269,$1551,$1570,$1413,$1727,$1880,$1692,$2068,$2270,$2043,$2497,$2620,$2358,$2882
19091,METRO37980M37980,"Philadelphia-Camden-Wilmington, PA-NJ-DE-MD MSA",Philadelphia-Camden-Wilmington,PA-NJ-DE-MD,$1200,$1080,$1320,$1340,$1206,$1474,$1600,$1440,$1760,$1930,$1737,$2123,$2230,$2007,$2453
19094,METRO37980M37980,"Philadelphia-Camden-Wilmington, PA-NJ-DE-MD MSA",Philadelphia-Camden-Wilmington,PA-NJ-DE-MD,$1040,$936,$1144,$1150,$1035,$1265,$1380,$1242,$1518,$1670,$1503,$1837,$1920,$1728,$2112
19095,METRO37980M37980,"Philadelphia-Camden-Wilmington, PA-NJ-DE-MD MSA",Philadelphia-Camden-Wilmington,PA-NJ-DE-MD,$1630,$1467,$1793,$1810,$1629,$1991,$2170,$1953,$2387,$2620,$2358,$2882,$3030,$2727,$3333
19096,METRO37980M37980,"Philadelphia-Camden-Wilmington, PA-NJ-DE-MD MSA",Philadelphia-Camden-Wilmington,PA-NJ-DE-MD,$1870,$1683,$2057,$2080,$1872,$2288,$2490,$2241,$2739,$3010,$2709,$3311,$3470,$3123,$3817
19101,METRO37980M37980,"Philadelphia-Camden-Wilmington, PA-NJ-DE-MD MSA",Philadelphia-Camden-Wilmington,PA-NJ-DE-MD,$1230,$1107,$1353,$1370,$1233,$1507,$1640,$1476,$1804,$1980,$1782,$2178,$2290,$2061,$2519
19102,METRO37980M37980,"Philadelphia-Camden-Wilmington, PA-NJ-DE-MD MSA",Philadelphia-Camden-Wilmington,PA-NJ-DE-MD,$1960,$1764,$2156,$2180,$1962,$2398,$2610,$2349,$2871,$3160,$2844,$3476,$3640,$3276,$4004
19103,METRO37980M37980,"Philadelphia-Camden-Wilmington, PA-NJ-DE-MD MSA",Philadelphia-Camden-Wilmington,PA-NJ-DE-MD,$1960,$1764,$2156,$2180,$1962,$2398,$2610,$2349,$2871,$3160,$2844,$3476,$3640,$3276,$4004
19104,METRO37980M37980,"Philadelphia-Camden-Wilmington, PA-NJ-DE-MD MSA",Philadelphia-Camden-Wilmington,PA-NJ-DE-MD,$1140,$1026,$1254,$1270,$1143,$1397,$1520,$1368,$1672,$1840,$1656,$2024,$2120,$1908,$2332
19105,METRO37980M37980,"Philadelphia-Camden-Wilmington, PA-NJ-DE-MD MSA",Philadelphia-Camden-Wilmington,PA-NJ-DE-MD,$1230,$1107,$1353,$1370,$1233,$1507,$1640,$1476,$1804,$1980,$1782,$2178,$2290,$2061,$2519
19106,METRO37980M37980,"Philadelphia-Camden-Wilmington, PA-NJ-DE-MD MSA",Philadelphia-Camden-Wilmington,PA-NJ-DE-MD,$1960,$1764,$2156,$2180,$1962,$2398,$2610,$2349,$2871,$3160,$2844,$3476,$3640,$3276,$4004
19107,METRO37980M37980,"Philadelphia-Camden-Wilmington, PA-NJ-DE-MD MSA",Philadelphia-Camden-Wilmington,PA-NJ-DE-MD,$1940,$1746,$2134,$2160,$1944,$2376,$2590,$2331,$2849,$3130,$2817,$3443,$3610,$3249,$3971
19108,METRO37980M37980,"Philadelphia-Camden-Wilmington, PA-NJ-DE-MD MSA",Philadelphia-Camden-Wilmington,PA-NJ-DE-MD,$1230,$1107,$1353,$1370,$1233,$1507,$1640,$1476,$1804,$1980,$1782,$2178,$2290,$2061,$2519
19109,METRO37980M37980,"Philadelphia-Camden-Wilmington, PA-NJ-DE-MD MSA",Philadelphia-Camden-Wilmington,PA-NJ-DE-MD,$1230,$1107,$1353,$1370,$1233,$1507,$1640,$1476,$1804,$1980,$1782,$2178,$2290,$2061,$2519
19110,METRO37980M37980,"Philadelphia-Camden-Wilmington, PA-NJ-DE-MD MSA",Philadelphia-Camden-Wilmington,PA-NJ-DE-MD,$1230,$1107,$1353,$1370,$1233,$1507,$1640,$1476,$1804,$1980,$1782,$2178,$2290,$2061,$2519
19111,METRO37980M37980,"Philadelphia-Camden-Wilmington, PA-NJ-DE-MD MSA",Philadelphia-Camden-Wilmington,PA-NJ-DE-MD,$1140,$1026,$1254,$1270,$1143,$1397,$1520,$1368,$1672,$1840,$1656,$2024,$2120,$1908,$2332
19112,METRO37980M37980,"Philadelphia-Camden-Wilmington, PA-NJ-DE-MD MSA",Philadelphia-Camden-Wilmington,PA-NJ-DE-MD,$1230,$1107,$1353,$1370,$1233,$1507,$1640,$1476,$1804,$1980,$1782,$2178,$2290,$2061,$2519
19113,METRO37980M37980,"Philadelphia-Camden-Wilmington, PA-NJ-DE-MD MSA",Philadelphia-Camden-Wilmington,PA-NJ-DE-MD,$1200,$1080,$1320,$1340,$1206,$1474,$1600,$1440,$1760,$1930,$1737,$2123,$2230,$2007,$2453
19114,METRO37980M37980,"Philadelphia-Camden-Wilmington, PA-NJ-DE-MD MSA",Philadelphia-Camden-Wilmington,PA-NJ-DE-MD,$1270,$1143,$1397,$1410,$1269,$1551,$1690,$1521,$1859,$2040,$1836,$2244,$2360,$2124,$2596
19115,METRO37980M37980,"Philadelphia-Camden-Wilmington, PA-NJ-DE-MD MSA",Philadelphia-Camden-Wilmington,PA-NJ-DE-MD,$1190,$1071,$1309,$1320,$1188,$1452,$1580,$1422,$1738,$1910,$1719,$2101,$2200,$1980,$2420
19116,METRO37980M37980,"Philadelphia-Camden-Wilmington, PA-NJ-DE-MD MSA",Philadelphia-Camden-Wilmington,PA-NJ-DE-MD,$1190,$1071,$1309,$1330,$1197,$1463,$1590,$1431,$1749,$1920,$1728,$2112,$2220,$1998,$2442
19118,METRO37980M37980,"Philadelphia-Camden-Wilmington, PA-NJ-DE-MD MSA",Philadelphia-Camden-Wilmington,PA-NJ-DE-MD,$1680,$1512,$1848,$1870,$1683,$2057,$2240,$2016,$2464,$2710,$2439,$2981,$3120,$2808,$3432
19119,METRO37980M37980,"Philadelphia-Camden-Wilmington, PA-NJ-DE-MD MSA",Philadelphia-Camden-Wilmington,PA-NJ-DE-MD,$1160,$1044,$1276,$1290,$1161,$1419,$1550,$1395,$1705,$1870,$1683,$2057,$2160,$1944,$2376
19120,METRO37980M37980,"Philadelphia-Camden-Wilmington, PA-NJ-DE-MD MSA",Philadelphia-Camden-Wilmington,PA-NJ-DE-MD,$1070,$963,$1177,$1190,$1071,$1309,$1420,$1278,$1562,$1720,$1548,$1892,$1980,$1782,$2178
19121,METRO37980M37980,"Philadelphia-Camden-Wilmington, PA-NJ-DE-MD MSA",Philadelphia-Camden-Wilmington,PA-NJ-DE-MD,$1100,$990,$1210,$1230,$1107,$1353,$1470,$1323,$1617,$1780,$1602,$1958,$2050,$1845,$2255
19122,METRO37980M37980,"Philadelphia-Camden-Wilmington, PA-NJ-DE-MD MSA",Philadelphia-Camden-Wilmington,PA-NJ-DE-MD,$1160,$1044,$1276,$1290,$1161,$1419,$1550,$1395,$1705,$1870,$1683,$2057,$2160,$1944,$2376
19123,METRO37980M37980,"Philadelphia-Camden-Wilmington, PA-NJ-DE-MD MSA",Philadelphia-Camden-Wilmington,PA-NJ-DE-MD,$1760,$1584,$1936,$1960,$1764,$2156,$2350,$2115,$2585,$2840,$2556,$3124,$3280,$2952,$3608
19124,METRO37980M37980,"Philadelphia-Camden-Wilmington, PA-NJ-DE-MD MSA",Philadelphia-Camden-Wilmington,PA-NJ-DE-MD,$1020,$918,$1122,$1140,$1026,$1254,$1360,$1224,$1496,$1640,$1476,$1804,$1900,$1710,$2090
19125,METRO37980M37980,"Philadelphia-Camden-Wilmington, PA-NJ-DE-MD MSA",Philadelphia-Camden-Wilmington,PA-NJ-DE-MD,$1550,$1395,$1705,$1730,$1557,$1903,$2070,$1863,$2277,$2500,$2250,$2750,$2890,$2601,$3179
19126,METRO37980M37980,"Philadelphia-Camden-Wilmington, PA-NJ-DE-MD MSA",Philadelphia-Camden-Wilmington,PA-NJ-DE-MD,$1070,$963,$1177,$1190,$1071,$1309,$1430,$1287,$1573,$1730,$1557,$1903,$1990,$1791,$2189
19127,METRO37980M37980,"Philadelphia-Camden-Wilmington, PA-NJ-DE-MD MSA",Philadelphia-Camden-Wilmington,PA-NJ-DE-MD,$1720,$1548,$1892,$1910,$1719,$2101,$2290,$2061,$2519,$2770,$2493,$3047,$3190,$2871,$3509
19128,METRO37980M37980,"Philadelphia-Camden-Wilmington, PA-NJ-DE-MD MSA",Philadelphia-Camden-Wilmington,PA-NJ-DE-MD,$1460,$1314,$1606,$1630,$1467,$1793,$1950,$1755,$2145,$2360,$2124,$2596,$2720,$2448,$2992
19129,METRO37980M37980,"Philadelphia-Camden-Wilmington, PA-NJ-DE-MD MSA",Philadelphia-Camden-Wilmington,PA-NJ-DE-MD,$1550,$1395,$1705,$1730,$1557,$1903,$2070,$1863,$2277,$2500,$2250,$2750,$2890,$2601,$3179
19130,METRO37980M37980,"Philadelphia-Camden-Wilmington, PA-NJ-DE-MD MSA",Philadelphia-Camden-Wilmington,PA-NJ-DE-MD,$1880,$1692,$2068,$2090,$1881,$2299,$2500,$2250,$2750,$3020,$2718,$3322,$3490,$3141,$3839
19131,METRO37980M37980,"Philadelphia-Camden-Wilmington, PA-NJ-DE-MD MSA",Philadelphia-Camden-Wilmington,PA-NJ-DE-MD,$1240,$1116,$1364,$1380,$1242,$1518,$1650,$1485,$1815,$2000,$1800,$2200,$2300,$2070,$2530
19132,METRO37980M37980,"Philadelphia-Camden-Wilmington, PA-NJ-DE-MD MSA",Philadelphia-Camden-Wilmington,PA-NJ-DE-MD,$1010,$909,$1111,$1120,$1008,$1232,$1340,$1206,$1474,$1620,$1458,$1782,$1870,$1683,$2057
19133,METRO37980M37980,"Philadelphia-Camden-Wilmington, PA-NJ-DE-MD MSA",Philadelphia-Camden-Wilmington,PA-NJ-DE-MD,$920,$828,$1012,$1030,$927,$1133,$1230,$1107,$1353,$1490,$1341,$1639,$1720,$1548,$1892
19134,METRO37980M37980,"Philadelphia-Camden-Wilmington, PA-NJ-DE-MD MSA",Philadelphia-Camden-Wilmington,PA-NJ-DE-MD,$970,$873,$1067,$1080,$972,$1188,$1290,$1161,$1419,$1560,$1404,$1716,$1800,$1620,$1980
19135,METRO37980M37980,"Philadelphia-Camden-Wilmington, PA-NJ-DE-MD MSA",Philadelphia-Camden-Wilmington,PA-NJ-DE-MD,$1140,$1026,$1254,$1270,$1143,$1397,$1520,$1368,$1672,$1840,$1656,$2024,$2120,$1908,$2332
19136,METRO37980M37980,"Philadelphia-Camden-Wilmington, PA-NJ-DE-MD MSA",Philadelphia-Camden-Wilmington,PA-NJ-DE-MD,$1020,$918,$1122,$1140,$1026,$1254,$1360,$1224,$1496,$1640,$1476,$1804,$1900,$1710,$2090
19137,METRO37980M37980,"Philadelphia-Camden-Wilmington, PA-NJ-DE-MD MSA",Philadelphia-Camden-Wilmington,PA-NJ-DE-MD,$1180,$1062,$1298,$1310,$1179,$1441,$1570,$1413,$1727,$1900,$1710,$2090,$2190,$1971,$2409
19138,METRO37980M37980,"Philadelphia-Camden-Wilmington, PA-NJ-DE-MD MSA",Philadelphia-Camden-Wilmington,PA-NJ-DE-MD,$1120,$1008,$1232,$1240,$1116,$1364,$1490,$1341,$1639,$1800,$1620,$1980,$2080,$1872,$2288
19139,METRO37980M37980,"Philadelphia-Camden-Wilmington, PA-NJ-DE-MD MSA",Philadelphia-Camden-Wilmington,PA-NJ-DE-MD,$1050,$945,$1155,$1170,$1053,$1287,$1400,$1260,$1540,$1690,$1521,$1859,$1950,$1755,$2145
19140,METRO37980M37980,"Philadelphia-Camden-Wilmington, PA-NJ-DE-MD MSA",Philadelphia-Camden-Wilmington,PA-NJ-DE-MD,$1020,$918,$1122,$1140,$1026,$1254,$1360,$1224,$1496,$1640,$1476,$1804,$1900,$1710,$2090
19141,METRO37980M37980,"Philadelphia-Camden-Wilmington, PA-NJ-DE-MD MSA",Philadelphia-Camden-Wilmington,PA-NJ-DE-MD,$1020,$918,$1122,$1140,$1026,$1254,$1360,$1224,$1496,$1640,$1476,$1804,$1900,$1710,$2090
19142,METRO37980M37980,"Philadelphia-Camden-Wilmington, PA-NJ-DE-MD MSA",Philadelphia-Camden-Wilmington,PA-NJ-DE-MD,$1070,$963,$1177,$1190,$1071,$1309,$1420,$1278,$1562,$1720,$1548,$1892,$1980,$1782,$2178
19143,METRO37980M37980,"Philadelphia-Camden-Wilmington, PA-NJ-DE-MD MSA",Philadelphia-Camden-Wilmington,PA-NJ-DE-MD,$1060,$954,$1166,$1180,$1062,$1298,$1410,$1269,$1551,$1700,$1530,$1870,$1970,$1773,$2167
19144,METRO37980M37980,"Philadelphia-Camden-Wilmington, PA-NJ-DE-MD MSA",Philadelphia-Camden-Wilmington,PA-NJ-DE-MD,$1180,$1062,$1298,$1310,$1179,$1441,$1570,$1413,$1727,$1900,$1710,$2090,$2190,$1971,$2409
19145,METRO37980M37980,"Philadelphia-Camden-Wilmington, PA-NJ-DE-MD MSA",Philadelphia-Camden-Wilmington,PA-NJ-DE-MD,$1270,$1143,$1397,$1410,$1269,$1551,$1690,$1521,$1859,$2040,$1836,$2244,$2360,$2124,$2596
19146,METRO37980M37980,"Philadelphia-Camden-Wilmington, PA-NJ-DE-MD MSA",Philadelphia-Camden-Wilmington,PA-NJ-DE-MD,$1610,$1449,$1771,$1800,$1620,$1980,$2150,$1935,$2365,$2600,$2340,$2860,$3000,$2700,$3300
19147,METRO37980M37980,"Philadelphia-Camden-Wilmington, PA-NJ-DE-MD MSA",Philadelphia-Camden-Wilmington,PA-NJ-DE-MD,$1730,$1557,$1903,$1920,$1728,$2112,$2300,$2070,$2530,$2780,$2502,$3058,$3210,$2889,$3531
19148,METRO37980M37980,"Philadelphia-Camden-Wilmington, PA-NJ-DE-MD MSA",Philadelphia-Camden-Wilmington,PA-NJ-DE-MD,$1310,$1179,$1441,$1450,$1305,$1595,$1740,$1566,$1914,$2100,$1890,$2310,$2430,$2187,$2673
19149,METRO37980M37980,"Philadelphia-Camden-Wilmington, PA-NJ-DE-MD MSA",Philadelphia-Camden-Wilmington,PA-NJ-DE-MD,$1270,$1143,$1397,$1410,$1269,$1551,$1690,$1521,$1859,$2040,$1836,$2244,$2360,$2124,$2596
19150,METRO37980M37980,"Philadelphia-Camden-Wilmington, PA-NJ-DE-MD MSA",Philadelphia-Camden-Wilmington,PA-NJ-DE-MD,$1210,$1089,$1331,$1340,$1206,$1474,$1610,$1449,$1771,$1950,$1755,$2145,$2250,$2025,$2475
19151,METRO37980M37980,"Philadelphia-Camden-Wilmington, PA-NJ-DE-MD MSA",Philadelphia-Camden-Wilmington,PA-NJ-DE-MD,$1060,$954,$1166,$1180,$1062,$1298,$1410,$1269,$1551,$1700,$1530,$1870,$1970,$1773,$2167
19152,METRO37980M37980,"Philadelphia-Camden-Wilmington, PA-NJ-DE-MD MSA",Philadelphia-Camden-Wilmington,PA-NJ-DE-MD,$1130,$1017,$1243,$1250,$1125,$1375,$1500,$1350,$1650,$1810,$1629,$1991,$2090,$1881,$2299
19153,METRO37980M37980,"Philadelphia-Camden-Wilmington, PA-NJ-DE-MD MSA",Philadelphia-Camden-Wilmington,PA-NJ-DE-MD,$1330,$1197,$1463,$1480,$1332,$1628,$1770,$1593,$1947,$2140,$1926,$2354,$2470,$2223,$2717
19154,METRO37980M37980,"Philadelphia-Camden-Wilmington, PA-NJ-DE-MD MSA",Philadelphia-Camden-Wilmington,PA-NJ-DE-MD,$1350,$1215,$1485,$1500,$1350,$1650,$1800,$1620,$1980,$2180,$1962,$2398,$2510,$2259,$2761
19160,METRO37980M37980,"Philadelphia-Camden-Wilmington, PA-NJ-DE-MD MSA",Philadelphia-Camden-Wilmington,PA-NJ-DE-MD,$1230,$1107,$1353,$1370,$1233,$1507,$1640,$1476,$1804,$1980,$1782,$2178,$2290,$2061,$2519
19176,METRO37980M37980,"Philadelphia-Camden-Wilmington, PA-NJ-DE-MD MSA",Philadelphia-Camden-Wilmington,PA-NJ-DE-MD,$1230,$1107,$1353,$1370,$1233,$1507,$1640,$1476,$1804,$1980,$1782,$2178,$2290,$2061,$2519
19190,METRO37980M37980,"Philadelphia-Camden-Wilmington, PA-NJ-DE-MD MSA",Philadelphia-Camden-Wilmington,PA-NJ-DE-MD,$1230,$1107,$1353,$1370,$1233,$1507,$1640,$1476,$1804,$1980,$1782,$2178,$2290,$2061,$2519
19192,METRO37980M37980,"Philadelphia-Camden-Wilmington, PA-NJ-DE-MD MSA",Philadelphia-Camden-Wilmington,PA-NJ-DE-MD,$1230,$1107,$1353,$1370,$1233,$1507,$1640,$1476,$1804,$1980,$1782,$2178,$2290,$2061,$2519
19301,METRO37980M37980,"Philadelphia-Camden-Wilmington, PA-NJ-DE-MD MSA",Philadelphia-Camden-Wilmington,PA-NJ-DE-MD,$1640,$1476,$1804,$1820,$1638,$2002,$2180,$1962,$2398,$2640,$2376,$2904,$3040,$2736,$3344
19311,METRO37980M37980,"Philadelphia-Camden-Wilmington, PA-NJ-DE-MD MSA",Philadelphia-Camden-Wilmington,PA-NJ-DE-MD,$1340,$1206,$1474,$1500,$1350,$1650,$1790,$1611,$1969,$2160,$1944,$2376,$2500,$2250,$2750
19312,METRO37980M37980,"Philadelphia-Camden-Wilmington, PA-NJ-DE-MD MSA",Philadelphia-Camden-Wilmington,PA-NJ-DE-MD,$1710,$1539,$1881,$1900,$1710,$2090,$2280,$2052,$2508,$2760,$2484,$3036,$3180,$2862,$3498
19316,METRO37980M37980,"Philadelphia-Camden-Wilmington, PA-NJ-DE-MD MSA",Philadelphia-Camden-Wilmington,PA-NJ-DE-MD,$1200,$1080,$1320,$1340,$1206,$1474,$1600,$1440,$1760,$1940,$1746,$2134,$2230,$2007,$2453
19317,METRO37980M37980,"Philadelphia-Camden-Wilmington, PA-NJ-DE-MD MSA",Philadelphia-Camden-Wilmington,PA-NJ-DE-MD,$1860,$1674,$2046,$2070,$1863,$2277,$2480,$2232,$2728,$3000,$2700,$3300,$3460,$3114,$3806
19318,METRO37980M37980,"Philadelphia-Camden-Wilmington, PA-NJ-DE-MD MSA",Philadelphia-Camden-Wilmington,PA-NJ-DE-MD,$1500,$1350,$1650,$1670,$1503,$1837,$2000,$1800,$2200,$2420,$2178,$2662,$2790,$2511,$3069
19319,METRO37980M37980,"Philadelphia-Camden-Wilmington, PA-NJ-DE-MD MSA",Philadelphia-Camden-Wilmington,PA-NJ-DE-MD,$1800,$1620,$1980,$2000,$1800,$2200,$2390,$2151,$2629,$2900,$2610,$3190,$3340,$3006,$3674
19320,METRO37980M37980,"Philadelphia-Camden-Wilmington, PA-NJ-DE-MD MSA",Philadelphia-Camden-Wilmington,PA-NJ-DE-MD,$1220,$1098,$1342,$1360,$1224,$1496,$1630,$1467,$1793,$1970,$1773,$2167,$2270,$2043,$2497
19330,METRO37980M37980,"Philadelphia-Camden-Wilmington, PA-NJ-DE-MD MSA",Philadelphia-Camden-Wilmington,PA-NJ-DE-MD,$1150,$1035,$1265,$1280,$1152,$1408,$1530,$1377,$1683,$1850,$1665,$2035,$2130,$1917,$2343
19331,METRO37980M37980,"Philadelphia-Camden-Wilmington, PA-NJ-DE-MD MSA",Philadelphia-Camden-Wilmington,PA-NJ-DE-MD,$1200,$1080,$1320,$1340,$1206,$1474,$1600,$1440,$1760,$1930,$1737,$2123,$2230,$2007,$2453
19333,METRO37980M37980,"Philadelphia-Camden-Wilmington, PA-NJ-DE-MD MSA",Philadelphia-Camden-Wilmington,PA-NJ-DE-MD,$1750,$1575,$1925,$1950,$1755,$2145,$2330,$2097,$2563,$2820,$2538,$3102,$3250,$2925,$3575
19335,METRO37980M37980,"Philadelphia-Camden-Wilmington, PA-NJ-DE-MD MSA",Philadelphia-Camden-Wilmington,PA-NJ-DE-MD,$1400,$1260,$1540,$1550,$1395,$1705,$1860,$1674,$2046,$2250,$2025,$2475,$2590,$2331,$2849
19341,METRO37980M37980,"Philadelphia-Camden-Wilmington, PA-NJ-DE-MD MSA",Philadelphia-Camden-Wilmington,PA-NJ-DE-MD,$1820,$1638,$2002,$2030,$1827,$2233,$2430,$2187,$2673,$2940,$2646,$3234,$3390,$3051,$3729
19342,METRO37980M37980,"Philadelphia-Camden-Wilmington, PA-NJ-DE-MD MSA",Philadelphia-Camden-Wilmington,PA-NJ-DE-MD,$1960,$1764,$2156,$2180,$1962,$2398,$2610,$2349,$2871,$3160,$2844,$3476,$3640,$3276,$4004
19343,METRO37980M37980,"Philadelphia-Camden-Wilmington, PA-NJ-DE-MD MSA",Philadelphia-Camden-Wilmington,PA-NJ-DE-MD,$1670,$1503,$1837,$1860,$1674,$2046,$2230,$2007,$2453,$2700,$2430,$2970,$3110,$2799,$3421
19345,METRO37980M37980,"Philadelphia-Camden-Wilmington, PA-NJ-DE-MD MSA",Philadelphia-Camden-Wilmington,PA-NJ-DE-MD,$1820,$1638,$2002,$2030,$1827,$2233,$2430,$2187,$2673,$2940,$2646,$3234,$3390,$3051,$3729
19346,METRO37980M37980,"Philadelphia-Camden-Wilmington, PA-NJ-DE-MD MSA",Philadelphia-Camden-Wilmington,PA-NJ-DE-MD,$1500,$1350,$1650,$1670,$1503,$1837,$2000,$1800,$2200,$2420,$2178,$2662,$2790,$2511,$3069
19347,METRO37980M37980,"Philadelphia-Camden-Wilmington, PA-NJ-DE-MD MSA",Philadelphia-Camden-Wilmington,PA-NJ-DE-MD,$1500,$1350,$1650,$1670,$1503,$1837,$2000,$1800,$2200,$2420,$2178,$2662,$2790,$2511,$3069
19348,METRO37980M37980,"Philadelphia-Camden-Wilmington, PA-NJ-DE-MD MSA",Philadelphia-Camden-Wilmington,PA-NJ-DE-MD,$1210,$1089,$1331,$1340,$1206,$1474,$1610,$1449,$1771,$1950,$1755,$2145,$2250,$2025,$2475
19350,METRO37980M37980,"Philadelphia-Camden-Wilmington, PA-NJ-DE-MD MSA",Philadelphia-Camden-Wilmington,PA-NJ-DE-MD,$1370,$1233,$1507,$1530,$1377,$1683,$1830,$1647,$2013,$2210,$1989,$2431,$2550,$2295,$2805
19352,METRO37980M37980,"Philadelphia-Camden-Wilmington, PA-NJ-DE-MD MSA",Philadelphia-Camden-Wilmington,PA-NJ-DE-MD,$1130,$1017,$1243,$1250,$1125,$1375,$1500,$1350,$1650,$1810,$1629,$1991,$2090,$1881,$2299
19354,METRO37980M37980,"Philadelphia-Camden-Wilmington, PA-NJ-DE-MD MSA",Philadelphia-Camden-Wilmington,PA-NJ-DE-MD,$1500,$1350,$1650,$1670,$1503,$1837,$2000,$1800,$2200,$2420,$2178,$2662,$2790,$2511,$3069
19355,METRO37980M37980,"Philadelphia-Camden-Wilmington, PA-NJ-DE-MD MSA",Philadelphia-Camden-Wilmington,PA-NJ-DE-MD,$1820,$1638,$2002,$2030,$1827,$2233,$2430,$2187,$2673,$2940,$2646,$3234,$3390,$3051,$3729
19357,METRO37980M37980,"Philadelphia-Camden-Wilmington, PA-NJ-DE-MD MSA",Philadelphia-Camden-Wilmington,PA-NJ-DE-MD,$1500,$1350,$1650,$1670,$1503,$1837,$2000,$1800,$2200,$2420,$2178,$2662,$2790,$2511,$3069
19358,METRO37980M37980,"Philadelphia-Camden-Wilmington, PA-NJ-DE-MD MSA",Philadelphia-Camden-Wilmington,PA-NJ-DE-MD,$1230,$1107,$1353,$1370,$1233,$1507,$1640,$1476,$1804,$1980,$1782,$2178,$2290,$2061,$2519
19360,METRO37980M37980,"Philadelphia-Camden-Wilmington, PA-NJ-DE-MD MSA",Philadelphia-Camden-Wilmington,PA-NJ-DE-MD,$1500,$1350,$1650,$1670,$1503,$1837,$2000,$1800,$2200,$2420,$2178,$2662,$2790,$2511,$3069
19365,METRO37980M37980,"Philadelphia-Camden-Wilmington, PA-NJ-DE-MD MSA",Philadelphia-Camden-Wilmington,PA-NJ-DE-MD,$1180,$1062,$1298,$1310,$1179,$1441,$1570,$1413,$1727,$1900,$1710,$2090,$2190,$1971,$2409
19366,METRO37980M37980,"Philadelphia-Camden-Wilmington, PA-NJ-DE-MD MSA",Philadelphia-Camden-Wilmington,PA-NJ-DE-MD,$1500,$1350,$1650,$1670,$1503,$1837,$2000,$1800,$2200,$2420,$2178,$2662,$2790,$2511,$3069
19367,METRO37980M37980,"Philadelphia-Camden-Wilmington, PA-NJ-DE-MD MSA",Philadelphia-Camden-Wilmington,PA-NJ-DE-MD,$1210,$1089,$1331,$1350,$1215,$1485,$1610,$1449,$1771,$1950,$1755,$2145,$2250,$2025,$2475
19369,METRO37980M37980,"Philadelphia-Camden-Wilmington, PA-NJ-DE-MD MSA",Philadelphia-Camden-Wilmington,PA-NJ-DE-MD,$1500,$1350,$1650,$1670,$1503,$1837,$2000,$1800,$2200,$2420,$2178,$2662,$2790,$2511,$3069
19372,METRO37980M37980,"Philadelphia-Camden-Wilmington, PA-NJ-DE-MD MSA",Philadelphia-Camden-Wilmington,PA-NJ-DE-MD,$1880,$1692,$2068,$2090,$1881,$2299,$2500,$2250,$2750,$3020,$2718,$3322,$3490,$3141,$3839
19373,METRO37980M37980,"Philadelphia-Camden-Wilmington, PA-NJ-DE-MD MSA",Philadelphia-Camden-Wilmington,PA-NJ-DE-MD,$1720,$1548,$1892,$1920,$1728,$2112,$2300,$2070,$2530,$2780,$2502,$3058,$3200,$2880,$3520
19374,METRO37980M37980,"Philadelphia-Camden-Wilmington, PA-NJ-DE-MD MSA",Philadelphia-Camden-Wilmington,PA-NJ-DE-MD,$950,$855,$1045,$1060,$954,$1166,$1270,$1143,$1397,$1540,$1386,$1694,$1770,$1593,$1947
19375,METRO37980M37980,"Philadelphia-Camden-Wilmington, PA-NJ-DE-MD MSA",Philadelphia-Camden-Wilmington,PA-NJ-DE-MD,$1210,$1089,$1331,$1340,$1206,$1474,$1610,$1449,$1771,$1950,$1755,$2145,$2250,$2025,$2475
19380,METRO37980M37980,"Philadelphia-Camden-Wilmington, PA-NJ-DE-MD MSA",Philadelphia-Camden-Wilmington,PA-NJ-DE-MD,$1650,$1485,$1815,$1840,$1656,$2024,$2200,$1980,$2420,$2660,$2394,$2926,$3070,$2763,$3377
19381,METRO37980M37980,"Philadelphia-Camden-Wilmington, PA-NJ-DE-MD MSA",Philadelphia-Camden-Wilmington,PA-NJ-DE-MD,$1500,$1350,$1650,$1670,$1503,$1837,$2000,$1800,$2200,$2420,$2178,$2662,$2790,$2511,$3069
19382,METRO37980M37980,"Philadelphia-Camden-Wilmington, PA-NJ-DE-MD MSA",Philadelphia-Camden-Wilmington,PA-NJ-DE-MD,$1530,$1377,$1683,$1700,$1530,$1870,$2040,$1836,$2244,$2470,$2223,$2717,$2840,$2556,$3124
19383,METRO37980M37980,"Philadelphia-Camden-Wilmington, PA-NJ-DE-MD MSA",Philadelphia-Camden-Wilmington,PA-NJ-DE-MD,$1530,$1377,$1683,$1700,$1530,$1870,$2040,$1836,$2244,$2470,$2223,$2717,$2840,$2556,$3124
19390,METRO37980M37980,"Philadelphia-Camden-Wilmington, PA-NJ-DE-MD MSA",Philadelphia-Camden-Wilmington,PA-NJ-DE-MD,$1210,$1089,$1331,$1340,$1206,$1474,$1610,$1449,$1771,$1950,$1755,$2145,$2250,$2025,$2475
19395,METRO37980M37980,"Philadelphia-Camden-Wilmington, PA-NJ-DE-MD MSA",Philadelphia-Camden-Wilmington,PA-NJ-DE-MD,$1500,$1350,$1650,$1670,$1503,$1837,$2000,$1800,$2200,$2420,$2178,$2662,$2790,$2511,$3069
19399,METRO37980M37980,"Philadelphia-Camden-Wilmington, PA-NJ-DE-MD MSA",Philadelphia-Camden-Wilmington,PA-NJ-DE-MD,$1500,$1350,$1650,$1670,$1503,$1837,$2000,$1800,$2200,$2420,$2178,$2662,$2790,$2511,$3069
19401,METRO37980M37980,"Philadelphia-Camden-Wilmington, PA-NJ-DE-MD MSA",Philadelphia-Camden-Wilmington,PA-NJ-DE-MD,$1340,$1206,$1474,$1500,$1350,$1650,$1790,$1611,$1969,$2160,$1944,$2376,$2500,$2250,$2750
19403,METRO37980M37980,"Philadelphia-Camden-Wilmington, PA-NJ-DE-MD MSA",Philadelphia-Camden-Wilmington,PA-NJ-DE-MD,$1470,$1323,$1617,$1640,$1476,$1804,$1960,$1764,$2156,$2370,$2133,$2607,$2730,$2457,$3003
19404,METRO37980M37980,"Philadelphia-Camden-Wilmington, PA-NJ-DE-MD MSA",Philadelphia-Camden-Wilmington,PA-NJ-DE-MD,$1440,$1296,$1584,$1600,$1440,$1760,$1920,$1728,$2112,$2320,$2088,$2552,$2680,$2412,$2948
19406,METRO37980M37980,"Philadelphia-Camden-Wilmington, PA-NJ-DE-MD MSA",Philadelphia-Camden-Wilmington,PA-NJ-DE-MD,$1730,$1557,$1903,$1930,$1737,$2123,$2310,$2079,$2541,$2790,$2511,$3069,$3220,$2898,$3542
19407,METRO37980M37980,"Philadelphia-Camden-Wilmington, PA-NJ-DE-MD MSA",Philadelphia-Camden-Wilmington,PA-NJ-DE-MD,$1440,$1296,$1584,$1600,$1440,$1760,$1920,$1728,$2112,$2320,$2088,$2552,$2680,$2412,$2948
19408,METRO37980M37980,"Philadelphia-Camden-Wilmington, PA-NJ-DE-MD MSA",Philadelphia-Camden-Wilmington,PA-NJ-DE-MD,$1440,$1296,$1584,$1600,$1440,$1760,$1920,$1728,$2112,$2320,$2088,$2552,$2680,$2412,$2948
19409,METRO37980M37980,"Philadelphia-Camden-Wilmington, PA-NJ-DE-MD MSA",Philadelphia-Camden-Wilmington,PA-NJ-DE-MD,$1440,$1296,$1584,$1600,$1440,$1760,$1920,$1728,$2112,$2320,$2088,$2552,$2680,$2412,$2948
19421,METRO37980M37980,"Philadelphia-Camden-Wilmington, PA-NJ-DE-MD MSA",Philadelphia-Camden-Wilmington,PA-NJ-DE-MD,$1500,$1350,$1650,$1670,$1503,$1837,$2000,$1800,$2200,$2420,$2178,$2662,$2790,$2511,$3069
19422,METRO37980M37980,"Philadelphia-Camden-Wilmington, PA-NJ-DE-MD MSA",Philadelphia-Camden-Wilmington,PA-NJ-DE-MD,$1920,$1728,$2112,$2140,$1926,$2354,$2560,$2304,$2816,$3100,$2790,$3410,$3570,$3213,$3927
19425,METRO37980M37980,"Philadelphia-Camden-Wilmington, PA-NJ-DE-MD MSA",Philadelphia-Camden-Wilmington,PA-NJ-DE-MD,$1960,$1764,$2156,$2180,$1962,$2398,$2610,$2349,$2871,$3160,$2844,$3476,$3640,$3276,$4004
19426,METRO37980M37980,"Philadelphia-Camden-Wilmington, PA-NJ-DE-MD MSA",Philadelphia-Camden-Wilmington,PA-NJ-DE-MD,$1600,$1440,$1760,$1780,$1602,$1958,$2130,$1917,$2343,$2580,$2322,$2838,$2970,$2673,$3267
19428,METRO37980M37980,"Philadelphia-Camden-Wilmington, PA-NJ-DE-MD MSA",Philadelphia-Camden-Wilmington,PA-NJ-DE-MD,$1670,$1503,$1837,$1860,$1674,$2046,$2230,$2007,$2453,$2700,$2430,$2970,$3110,$2799,$3421
19435,METRO37980M37980,"Philadelphia-Camden-Wilmington, PA-NJ-DE-MD MSA",Philadelphia-Camden-Wilmington,PA-NJ-DE-MD,$1440,$1296,$1584,$1600,$1440,$1760,$1920,$1728,$2112,$2320,$2088,$2552,$2680,$2412,$2948
19436,METRO37980M37980,"Philadelphia-Camden-Wilmington, PA-NJ-DE-MD MSA",Philadelphia-Camden-Wilmington,PA-NJ-DE-MD,$1410,$1269,$1551,$1580,$1422,$1738,$1890,$1701,$2079,$2280,$2052,$2508,$2630,$2367,$2893
19437,METRO37980M37980,"Philadelphia-Camden-Wilmington, PA-NJ-DE-MD MSA",Philadelphia-Camden-Wilmington,PA-NJ-DE-MD,$1500,$1350,$1650,$1680,$1512,$1848,$2000,$1800,$2200,$2420,$2178,$2662,$2800,$2520,$3080
19438,METRO37980M37980,"Philadelphia-Camden-Wilmington, PA-NJ-DE-MD MSA",Philadelphia-Camden-Wilmington,PA-NJ-DE-MD,$1620,$1458,$1782,$1800,$1620,$1980,$2160,$1944,$2376,$2610,$2349,$2871,$3010,$2709,$3311
19440,METRO37980M37980,"Philadelphia-Camden-Wilmington, PA-NJ-DE-MD MSA",Philadelphia-Camden-Wilmington,PA-NJ-DE-MD,$1250,$1125,$1375,$1400,$1260,$1540,$1670,$1503,$1837,$2020,$1818,$2222,$2330,$2097,$2563
19442,METRO37980M37980,"Philadelphia-Camden-Wilmington, PA-NJ-DE-MD MSA",Philadelphia-Camden-Wilmington,PA-NJ-DE-MD,$1500,$1350,$1650,$1670,$1503,$1837,$2000,$1800,$2200,$2420,$2178,$2662,$2790,$2511,$3069
19443,METRO37980M37980,"Philadelphia-Camden-Wilmington, PA-NJ-DE-MD MSA",Philadelphia-Camden-Wilmington,PA-NJ-DE-MD,$1440,$1296,$1584,$1600,$1440,$1760,$1920,$1728,$2112,$2320,$2088,$2552,$2680,$2412,$2948
19444,METRO37980M37980,"Philadelphia-Camden-Wilmington, PA-NJ-DE-MD MSA",Philadelphia-Camden-Wilmington,PA-NJ-DE-MD,$1850,$1665,$2035,$2060,$1854,$2266,$2460,$2214,$2706,$2970,$2673,$3267,$3430,$3087,$3773
19446,METRO37980M37980,"Philadelphia-Camden-Wilmington, PA-NJ-DE-MD MSA",Philadelphia-Camden-Wilmington,PA-NJ-DE-MD,$1460,$1314,$1606,$1630,$1467,$1793,$1950,$1755,$2145,$2360,$2124,$2596,$2720,$2448,$2992
19450,METRO37980M37980,"Philadelphia-Camden-Wilmington, PA-NJ-DE-MD MSA",Philadelphia-Camden-Wilmington,PA-NJ-DE-MD,$1440,$1296,$1584,$1600,$1440,$1760,$1920,$1728,$2112,$2320,$2088,$2552,$2680,$2412,$2948
19451,METRO37980M37980,"Philadelphia-Camden-Wilmington, PA-NJ-DE-MD MSA",Philadelphia-Camden-Wilmington,PA-NJ-DE-MD,$1440,$1296,$1584,$1600,$1440,$1760,$1920,$1728,$2112,$2320,$2088,$2552,$2680,$2412,$2948
19453,METRO37980M37980,"Philadelphia-Camden-Wilmington, PA-NJ-DE-MD MSA",Philadelphia-Camden-Wilmington,PA-NJ-DE-MD,$1580,$1422,$1738,$1750,$1575,$1925,$2100,$1890,$2310,$2540,$2286,$2794,$2930,$2637,$3223
19454,METRO37980M37980,"Philadelphia-Camden-Wilmington, PA-NJ-DE-MD MSA",Philadelphia-Camden-Wilmington,PA-NJ-DE-MD,$1500,$1350,$1650,$1670,$1503,$1837,$2000,$1800,$2200,$2420,$2178,$2662,$2790,$2511,$3069
19456,METRO37980M37980,"Philadelphia-Camden-Wilmington, PA-NJ-DE-MD MSA",Philadelphia-Camden-Wilmington,PA-NJ-DE-MD,$1510,$1359,$1661,$1680,$1512,$1848,$2010,$1809,$2211,$2440,$2196,$2684,$2810,$2529,$3091
19457,METRO37980M37980,"Philadelphia-Camden-Wilmington, PA-NJ-DE-MD MSA",Philadelphia-Camden-Wilmington,PA-NJ-DE-MD,$1170,$1053,$1287,$1300,$1170,$1430,$1560,$1404,$1716,$1880,$1692,$2068,$2170,$1953,$2387
19460,METRO37980M37980,"Philadelphia-Camden-Wilmington, PA-NJ-DE-MD MSA",Philadelphia-Camden-Wilmington,PA-NJ-DE-MD,$1460,$1314,$1606,$1620,$1458,$1782,$1940,$1746,$2134,$2350,$2115,$2585,$2710,$2439,$2981
19462,METRO37980M37980,"Philadelphia-Camden-Wilmington, PA-NJ-DE-MD MSA",Philadelphia-Camden-Wilmington,PA-NJ-DE-MD,$1730,$1557,$1903,$1920,$1728,$2112,$2300,$2070,$2530,$2780,$2502,$3058,$3210,$2889,$3531
19465,METRO37980M37980,"Philadelphia-Camden-Wilmington, PA-NJ-DE-MD MSA",Philadelphia-Camden-Wilmington,PA-NJ-DE-MD,$1230,$1107,$1353,$1370,$1233,$1507,$1640,$1476,$1804,$1980,$1782,$2178,$2290,$2061,$2519
19468,METRO37980M37980,"Philadelphia-Camden-Wilmington, PA-NJ-DE-MD MSA",Philadelphia-Camden-Wilmington,PA-NJ-DE-MD,$1580,$1422,$1738,$1760,$1584,$1936,$2110,$1899,$2321,$2550,$2295,$2805,$2940,$2646,$3234
19472,METRO37980M37980,"Philadelphia-Camden-Wilmington, PA-NJ-DE-MD MSA",Philadelphia-Camden-Wilmington,PA-NJ-DE-MD,$1020,$918,$1122,$1160,$1044,$1276,$1450,$1305,$1595,$1790,$1611,$1969,$1950,$1755,$2145
19473,METRO37980M37980,"Philadelphia-Camden-Wilmington, PA-NJ-DE-MD MSA",Philadelphia-Camden-Wilmington,PA-NJ-DE-MD,$1390,$1251,$1529,$1550,$1395,$1705,$1850,$1665,$2035,$2240,$2016,$2464,$2580,$2322,$2838
19474,METRO37980M37980,"Philadelphia-Camden-Wilmington, PA-NJ-DE-MD MSA",Philadelphia-Camden-Wilmington,PA-NJ-DE-MD,$1540,$1386,$1694,$1710,$1539,$1881,$2040,$1836,$2244,$2480,$2232,$2728,$2850,$2565,$3135
19475,METRO37980M37980,"Philadelphia-Camden-Wilmington, PA-NJ-DE-MD MSA",Philadelphia-Camden-Wilmington,PA-NJ-DE-MD,$980,$882,$1078,$1090,$981,$1199,$1310,$1179,$1441,$1580,$1422,$1738,$1830,$1647,$2013
19477,METRO37980M37980,"Philadelphia-Camden-Wilmington, PA-NJ-DE-MD MSA",Philadelphia-Camden-Wilmington,PA-NJ-DE-MD,$1340,$1206,$1474,$1500,$1350,$1650,$1790,$1611,$1969,$2160,$1944,$2376,$2500,$2250,$2750
19478,METRO37980M37980,"Philadelphia-Camden-Wilmington, PA-NJ-DE-MD MSA",Philadelphia-Camden-Wilmington,PA-NJ-DE-MD,$1440,$1296,$1584,$1600,$1440,$1760,$1920,$1728,$2112,$2320,$2088,$2552,$2680,$2412,$2948
19480,METRO37980M37980,"Philadelphia-Camden-Wilmington, PA-NJ-DE-MD MSA",Philadelphia-Camden-Wilmington,PA-NJ-DE-MD,$1500,$1350,$1650,$1670,$1503,$1837,$2000,$1800,$2200,$2420,$2178,$2662,$2790,$2511,$3069
19481,METRO37980M37980,"Philadelphia-Camden-Wilmington, PA-NJ-DE-MD MSA",Philadelphia-Camden-Wilmington,PA-NJ-DE-MD,$1500,$1350,$1650,$1670,$1503,$1837,$2000,$1800,$2200,$2420,$2178,$2662,$2790,$2511,$3069
19482,METRO37980M37980,"Philadelphia-Camden-Wilmington, PA-NJ-DE-MD MSA",Philadelphia-Camden-Wilmington,PA-NJ-DE-MD,$1500,$1350,$1650,$1670,$1503,$1837,$2000,$1800,$2200,$2420,$2178,$2662,$2790,$2511,$3069
19484,METRO37980M37980,"Philadelphia-Camden-Wilmington, PA-NJ-DE-MD MSA",Philadelphia-Camden-Wilmington,PA-NJ-DE-MD,$1440,$1296,$1584,$1600,$1440,$1760,$1920,$1728,$2112,$2320,$2088,$2552,$2680,$2412,$2948
19486,METRO37980M37980,"Philadelphia-Camden-Wilmington, PA-NJ-DE-MD MSA",Philadelphia-Camden-Wilmington,PA-NJ-DE-MD,$1440,$1296,$1584,$1600,$1440,$1760,$1920,$1728,$2112,$2320,$2088,$2552,$2680,$2412,$2948
19490,METRO37980M37980,"Philadelphia-Camden-Wilmington, PA-NJ-DE-MD MSA",Philadelphia-Camden-Wilmington,PA-NJ-DE-MD,$1440,$1296,$1584,$1600,$1440,$1760,$1920,$1728,$2112,$2320,$2088,$2552,$2680,$2412,$2948
19492,METRO37980M37980,"Philadelphia-Camden-Wilmington, PA-NJ-DE-MD MSA",Philadelphia-Camden-Wilmington,PA-NJ-DE-MD,$1390,$1251,$1529,$1550,$1395,$1705,$1850,$1665,$2035,$2240,$2016,$2464,$2580,$2322,$2838
19701,METRO37980M37980,"Philadelphia-Camden-Wilmington, PA-NJ-DE-MD MSA",Philadelphia-Camden-Wilmington,PA-NJ-DE-MD,$1630,$1467,$1793,$1810,$1629,$1991,$2170,$1953,$2387,$2620,$2358,$2882,$3030,$2727,$3333
19702,METRO37980M37980,"Philadelphia-Camden-Wilmington, PA-NJ-DE-MD MSA",Philadelphia-Camden-Wilmington,PA-NJ-DE-MD,$1430,$1287,$1573,$1590,$1431,$1749,$1900,$1710,$2090,$2300,$2070,$2530,$2650,$2385,$2915
19703,METRO37980M37980,"Philadelphia-Camden-Wilmington, PA-NJ-DE-MD MSA",Philadelphia-Camden-Wilmington,PA-NJ-DE-MD,$1220,$1098,$1342,$1360,$1224,$1496,$1630,$1467,$1793,$1970,$1773,$2167,$2270,$2043,$2497
19706,METRO37980M37980,"Philadelphia-Camden-Wilmington, PA-NJ-DE-MD MSA",Philadelphia-Camden-Wilmington,PA-NJ-DE-MD,$1250,$1125,$1375,$1390,$1251,$1529,$1660,$1494,$1826,$2010,$1809,$2211,$2310,$2079,$2541
19707,METRO37980M37980,"Philadelphia-Camden-Wilmington, PA-NJ-DE-MD MSA",Philadelphia-Camden-Wilmington,PA-NJ-DE-MD,$1900,$1710,$2090,$2110,$1899,$2321,$2530,$2277,$2783,$3060,$2754,$3366,$3530,$3177,$3883
19708,METRO37980M37980,"Philadelphia-Camden-Wilmington, PA-NJ-DE-MD MSA",Philadelphia-Camden-Wilmington,PA-NJ-DE-MD,$1310,$1179,$1441,$1450,$1305,$1595,$1740,$1566,$1914,$2100,$1890,$2310,$2430,$2187,$2673
19709,METRO37980M37980,"Philadelphia-Camden-Wilmington, PA-NJ-DE-MD MSA",Philadelphia-Camden-Wilmington,PA-NJ-DE-MD,$1430,$1287,$1573,$1600,$1440,$1760,$1910,$1719,$2101,$2310,$2079,$2541,$2660,$2394,$2926
19710,METRO37980M37980,"Philadelphia-Camden-Wilmington, PA-NJ-DE-MD MSA",Philadelphia-Camden-Wilmington,PA-NJ-DE-MD,$1560,$1404,$1716,$1740,$1566,$1914,$2080,$1872,$2288,$2510,$2259,$2761,$2900,$2610,$3190
19711,METRO37980M37980,"Philadelphia-Camden-Wilmington, PA-NJ-DE-MD MSA",Philadelphia-Camden-Wilmington,PA-NJ-DE-MD,$1310,$1179,$1441,$1450,$1305,$1595,$1740,$1566,$1914,$2100,$1890,$2310,$2430,$2187,$2673
19713,METRO37980M37980,"Philadelphia-Camden-Wilmington, PA-NJ-DE-MD MSA",Philadelphia-Camden-Wilmington,PA-NJ-DE-MD,$1240,$1116,$1364,$1380,$1242,$1518,$1650,$1485,$1815,$2000,$1800,$2200,$2300,$2070,$2530
19714,METRO37980M37980,"Philadelphia-Camden-Wilmington, PA-NJ-DE-MD MSA",Philadelphia-Camden-Wilmington,PA-NJ-DE-MD,$1310,$1179,$1441,$1450,$1305,$1595,$1740,$1566,$1914,$2100,$1890,$2310,$2430,$2187,$2673
19715,METRO37980M37980,"Philadelphia-Camden-Wilmington, PA-NJ-DE-MD MSA",Philadelphia-Camden-Wilmington,PA-NJ-DE-MD,$1310,$1179,$1441,$1450,$1305,$1595,$1740,$1566,$1914,$2100,$1890,$2310,$2430,$2187,$2673
19716,METRO37980M37980,"Philadelphia-Camden-Wilmington, PA-NJ-DE-MD MSA",Philadelphia-Camden-Wilmington,PA-NJ-DE-MD,$1310,$1179,$1441,$1450,$1305,$1595,$1740,$1566,$1914,$2100,$1890,$2310,$2430,$2187,$2673
19717,METRO37980M37980,"Philadelphia-Camden-Wilmington, PA-NJ-DE-MD MSA",Philadelphia-Camden-Wilmington,PA-NJ-DE-MD,$1310,$1179,$1441,$1450,$1305,$1595,$1740,$1566,$1914,$2100,$1890,$2310,$2430,$2187,$2673
19720,METRO37980M37980,"Philadelphia-Camden-Wilmington, PA-NJ-DE-MD MSA",Philadelphia-Camden-Wilmington,PA-NJ-DE-MD,$1210,$1089,$1331,$1340,$1206,$1474,$1610,$1449,$1771,$1950,$1755,$2145,$2250,$2025,$2475
19721,METRO37980M37980,"Philadelphia-Camden-Wilmington, PA-NJ-DE-MD MSA",Philadelphia-Camden-Wilmington,PA-NJ-DE-MD,$1310,$1179,$1441,$1450,$1305,$1595,$1740,$1566,$1914,$2100,$1890,$2310,$2430,$2187,$2673
19726,METRO37980M37980,"Philadelphia-Camden-Wilmington, PA-NJ-DE-MD MSA",Philadelphia-Camden-Wilmington,PA-NJ-DE-MD,$1310,$1179,$1441,$1450,$1305,$1595,$1740,$1566,$1914,$2100,$1890,$2310,$2430,$2187,$2673
19730,METRO37980M37980,"Philadelphia-Camden-Wilmington, PA-NJ-DE-MD MSA",Philadelphia-Camden-Wilmington,PA-NJ-DE-MD,$1320,$1188,$1452,$1470,$1323,$1617,$1760,$1584,$1936,$2130,$1917,$2343,$2450,$2205,$2695
19731,METRO37980M37980,"Philadelphia-Camden-Wilmington, PA-NJ-DE-MD MSA",Philadelphia-Camden-Wilmington,PA-NJ-DE-MD,$1430,$1287,$1573,$1600,$1440,$1760,$1910,$1719,$2101,$2310,$2079,$2541,$2660,$2394,$2926
19732,METRO37980M37980,"Philadelphia-Camden-Wilmington, PA-NJ-DE-MD MSA",Philadelphia-Camden-Wilmington,PA-NJ-DE-MD,$1500,$1350,$1650,$1670,$1503,$1837,$2000,$1800,$2200,$2420,$2178,$2662,$2790,$2511,$3069
19733,METRO37980M37980,"Philadelphia-Camden-Wilmington, PA-NJ-DE-MD MSA",Philadelphia-Camden-Wilmington,PA-NJ-DE-MD,$1370,$1233,$1507,$1520,$1368,$1672,$1820,$1638,$2002,$2200,$1980,$2420,$2550,$2295,$2805
19734,METRO37980M37980,"Philadelphia-Camden-Wilmington, PA-NJ-DE-MD MSA",Philadelphia-Camden-Wilmington,PA-NJ-DE-MD,$1460,$1314,$1606,$1620,$1458,$1782,$1940,$1746,$2134,$2350,$2115,$2585,$2710,$2439,$2981
19735,METRO37980M37980,"Philadelphia-Camden-Wilmington, PA-NJ-DE-MD MSA",Philadelphia-Camden-Wilmington,PA-NJ-DE-MD,$1310,$1179,$1441,$1450,$1305,$1595,$1740,$1566,$1914,$2100,$1890,$2310,$2430,$2187,$2673
19736,METRO37980M37980,"Philadelphia-Camden-Wilmington, PA-NJ-DE-MD MSA",Philadelphia-Camden-Wilmington,PA-NJ-DE-MD,$1890,$1701,$2079,$2100,$1890,$2310,$2520,$2268,$2772,$3050,$2745,$3355,$3520,$3168,$3872
19801,METRO37980M37980,"Philadelphia-Camden-Wilmington, PA-NJ-DE-MD MSA",Philadelphia-Camden-Wilmington,PA-NJ-DE-MD,$1100,$990,$1210,$1230,$1107,$1353,$1470,$1323,$1617,$1780,$1602,$1958,$2050,$1845,$2255
19802,METRO37980M37980,"Philadelphia-Camden-Wilmington, PA-NJ-DE-MD MSA",Philadelphia-Camden-Wilmington,PA-NJ-DE-MD,$1170,$1053,$1287,$1300,$1170,$1430,$1560,$1404,$1716,$1890,$1701,$2079,$2180,$1962,$2398
19803,METRO37980M37980,"Philadelphia-Camden-Wilmington, PA-NJ-DE-MD MSA",Philadelphia-Camden-Wilmington,PA-NJ-DE-MD,$1580,$1422,$1738,$1750,$1575,$1925,$2100,$1890,$2310,$2540,$2286,$2794,$2930,$2637,$3223
19804,METRO37980M37980,"Philadelphia-Camden-Wilmington, PA-NJ-DE-MD MSA",Philadelphia-Camden-Wilmington,PA-NJ-DE-MD,$1260,$1134,$1386,$1400,$1260,$1540,$1680,$1512,$1848,$2030,$1827,$2233,$2340,$2106,$2574
19805,METRO37980M37980,"Philadelphia-Camden-Wilmington, PA-NJ-DE-MD MSA",Philadelphia-Camden-Wilmington,PA-NJ-DE-MD,$1120,$1008,$1232,$1240,$1116,$1364,$1490,$1341,$1639,$1800,$1620,$1980,$2080,$1872,$2288
19806,METRO37980M37980,"Philadelphia-Camden-Wilmington, PA-NJ-DE-MD MSA",Philadelphia-Camden-Wilmington,PA-NJ-DE-MD,$1250,$1125,$1375,$1400,$1260,$1540,$1670,$1503,$1837,$2020,$1818,$2222,$2330,$2097,$2563
19807,METRO37980M37980,"Philadelphia-Camden-Wilmington, PA-NJ-DE-MD MSA",Philadelphia-Camden-Wilmington,PA-NJ-DE-MD,$1560,$1404,$1716,$1740,$1566,$1914,$2080,$1872,$2288,$2510,$2259,$2761,$2900,$2610,$3190
19808,METRO37980M37980,"Philadelphia-Camden-Wilmington, PA-NJ-DE-MD MSA",Philadelphia-Camden-Wilmington,PA-NJ-DE-MD,$1320,$1188,$1452,$1470,$1323,$1617,$1760,$1584,$1936,$2130,$1917,$2343,$2450,$2205,$2695
19809,METRO37980M37980,"Philadelphia-Camden-Wilmington, PA-NJ-DE-MD MSA",Philadelphia-Camden-Wilmington,PA-NJ-DE-MD,$1310,$1179,$1441,$1450,$1305,$1595,$1740,$1566,$1914,$2100,$1890,$2310,$2430,$2187,$2673
19810,METRO37980M37980,"Philadelphia-Camden-Wilmington, PA-NJ-DE-MD MSA",Philadelphia-Camden-Wilmington,PA-NJ-DE-MD,$1300,$1170,$1430,$1450,$1305,$1595,$1730,$1557,$1903,$2090,$1881,$2299,$2410,$2169,$2651
19884,METRO37980M37980,"Philadelphia-Camden-Wilmington, PA-NJ-DE-MD MSA",Philadelphia-Camden-Wilmington,PA-NJ-DE-MD,$1310,$1179,$1441,$1450,$1305,$1595,$1740,$1566,$1914,$2100,$1890,$2310,$2430,$2187,$2673
19899,METRO37980M37980,"Philadelphia-Camden-Wilmington, PA-NJ-DE-MD MSA",Philadelphia-Camden-Wilmington,PA-NJ-DE-MD,$1310,$1179,$1441,$1450,$1305,$1595,$1740,$1566,$1914,$2100,$1890,$2310,$2430,$2187,$2673
21901,METRO37980M37980,"Philadelphia-Camden-Wilmington, PA-NJ-DE-MD MSA",Philadelphia-Camden-Wilmington,PA-NJ-DE-MD,$1320,$1188,$1452,$1470,$1323,$1617,$1760,$1584,$1936,$2130,$1917,$2343,$2450,$2205,$2695
21902,METRO37980M37980,"Philadelphia-Camden-Wilmington, PA-NJ-DE-MD MSA",Philadelphia-Camden-Wilmington,PA-NJ-DE-MD,$1130,$1017,$1243,$1260,$1134,$1386,$1510,$1359,$1661,$1830,$1647,$2013,$2110,$1899,$2321
21903,METRO37980M37980,"Philadelphia-Camden-Wilmington, PA-NJ-DE-MD MSA",Philadelphia-Camden-Wilmington,PA-NJ-DE-MD,$1130,$1017,$1243,$1260,$1134,$1386,$1510,$1359,$1661,$1830,$1647,$2013,$2110,$1899,$2321
21904,METRO37980M37980,"Philadelphia-Camden-Wilmington, PA-NJ-DE-MD MSA",Philadelphia-Camden-Wilmington,PA-NJ-DE-MD,$1160,$1044,$1276,$1290,$1161,$1419,$1540,$1386,$1694,$1860,$1674,$2046,$2150,$1935,$2365
21911,METRO37980M37980,"Philadelphia-Camden-Wilmington, PA-NJ-DE-MD MSA",Philadelphia-Camden-Wilmington,PA-NJ-DE-MD,$1210,$1089,$1331,$1340,$1206,$1474,$1610,$1449,$1771,$1950,$1755,$2145,$2250,$2025,$2475
21912,METRO37980M37980,"Philadelphia-Camden-Wilmington, PA-NJ-DE-MD MSA",Philadelphia-Camden-Wilmington,PA-NJ-DE-MD,$1240,$1116,$1364,$1380,$1242,$1518,$1650,$1485,$1815,$2000,$1800,$2200,$2310,$2079,$2541
21913,METRO37980M37980,"Philadelphia-Camden-Wilmington, PA-NJ-DE-MD MSA",Philadelphia-Camden-Wilmington,PA-NJ-DE-MD,$830,$747,$913,$930,$837,$1023,$1110,$999,$1221,$1340,$1206,$1474,$1550,$1395,$1705
21914,METRO37980M37980,"Philadelphia-Camden-Wilmington, PA-NJ-DE-MD MSA",Philadelphia-Camden-Wilmington,PA-NJ-DE-MD,$1370,$1233,$1507,$1520,$1368,$1672,$1820,$1638,$2002,$2200,$1980,$2420,$2540,$2286,$2794
21915,METRO37980M37980,"Philadelphia-Camden-Wilmington, PA-NJ-DE-MD MSA",Philadelphia-Camden-Wilmington,PA-NJ-DE-MD,$1160,$1044,$1276,$1290,$1161,$1419,$1540,$1386,$1694,$1860,$1674,$2046,$2150,$1935,$2365
21916,METRO37980M37980,"Philadelphia-Camden-Wilmington, PA-NJ-DE-MD MSA",Philadelphia-Camden-Wilmington,PA-NJ-DE-MD,$1280,$1152,$1408,$1420,$1278,$1562,$1700,$1530,$1870,$2060,$1854,$2266,$2370,$2133,$2607
21917,METRO37980M37980,"Philadelphia-Camden-Wilmington, PA-NJ-DE-MD MSA",Philadelphia-Camden-Wilmington,PA-NJ-DE-MD,$1230,$1107,$1353,$1370,$1233,$1507,$1640,$1476,$1804,$1980,$1782,$2178,$2290,$2061,$2519
21918,METRO37980M37980,"Philadelphia-Camden-Wilmington, PA-NJ-DE-MD MSA",Philadelphia-Camden-Wilmington,PA-NJ-DE-MD,$970,$873,$1067,$1080,$972,$1188,$1290,$1161,$1419,$1560,$1404,$1716,$1800,$1620,$1980
21919,METRO37980M37980,"Philadelphia-Camden-Wilmington, PA-NJ-DE-MD MSA",Philadelphia-Camden-Wilmington,PA-NJ-DE-MD,$1280,$1152,$1408,$1420,$1278,$1562,$1700,$1530,$1870,$2060,$1854,$2266,$2370,$2133,$2607
21920,METRO37980M37980,"Philadelphia-Camden-Wilmington, PA-NJ-DE-MD MSA",Philadelphia-Camden-Wilmington,PA-NJ-DE-MD,$1310,$1179,$1441,$1460,$1314,$1606,$1750,$1575,$1925,$2120,$1908,$2332,$2440,$2196,$2684
21921,METRO37980M37980,"Philadelphia-Camden-Wilmington, PA-NJ-DE-MD MSA",Philadelphia-Camden-Wilmington,PA-NJ-DE-MD,$1310,$1179,$1441,$1460,$1314,$1606,$1750,$1575,$1925,$2120,$1908,$2332,$2440,$2196,$2684
21930,METRO37980M37980,"Philadelphia-Camden-Wilmington, PA-NJ-DE-MD MSA",Philadelphia-Camden-Wilmington,PA-NJ-DE-MD,$1280,$1152,$1408,$1420,$1278,$1562,$1700,$1530,$1870,$2060,$1854,$2266,$2370,$2133,$2607
